the_geom,cartodb_id,current_timezone_offset,postal_code,zip_code,store_id,first_seen,olson_timezone,timezone,coordinates,country,country_subdivision,city,street_3,street_2,street_1,street_combined,ownership_type,phone_number,store_number,brand,name,longitude,latitude
0101000020E61000009F6DFB3F837D52C0FF17F81F53614440,209,-300,100658702,10065,16178,12/8/13 22:41,GMT-05:00 America/New_York,Eastern Standard Time,"(40.7603492736816, -73.9611358642578)",US,NY,New York,,,1102 1st Ave,1102 1st Ave,CO,212-688-9118,7612-22336,Starbucks,60th & First,-73.96113586,40.76034927
0101000020E610000002A5FCFF537F52C0BEF207A024604440,1,-300,100012101,10001,6999,12/8/13 22:41,GMT-05:00 America/New_York,Eastern Standard Time,"(40.7511177062988, -73.989501953125)",US,NY,New York,,,151 W. 34th Street,151 W. 34th Street,CO,212-268-3695,14092-114824,Starbucks,Macy's 6th Floor,-73.98950195,40.75111771
0101000020E6100000D58DFB7F6A7F52C0CD68F51F635F4440,2,-300,100016354,10001,11291,12/8/13 22:41,GMT-05:00 America/New_York,Eastern Standard Time,"(40.7452125549316, -73.9908752441406)",US,NY,New York,The Capitol At Chelsea,,776 Avenue of the Americas,"776 Avenue of the Americas, The Capitol At Chelsea",CO,212-481-1856,7792-59799,Starbucks,27th & 6th,-73.99087524,40.74521255
0101000020E61000008ADD0400837F52C04C410AE0DE5F4440,3,-300,100013967,10001,11599,12/8/13 22:41,GMT-05:00 America/New_York,Eastern Standard Time,"(40.7489891052246, -73.9923706054688)",US,NY,New York,,,370 7th Avenue,370 7th Avenue,CO,(212) 967-2041,7316-1190,Starbucks,31st & 7th,-73.99237061,40.74898911
0101000020E610000060AAFCDF4F7F52C0DABFFC5FBF5F4440,4,-300,10001,10001,14380,12/8/13 22:41,GMT-05:00 America/New_York,Eastern Standard Time,"(40.7480278015137, -73.9892501831055)",US,NY,New York,,,875 Sixth Ave,875 Sixth Ave,CO,2126296540,9722-97890,Starbucks,31st & 6th,-73.98925018,40.7480278
0101000020E610000007FE0120388052C05F44FC3FDE604440,5,-300,100011114,10001,14762,12/8/13 22:41,GMT-05:00 America/New_York,Eastern Standard Time,"(40.7567825317383, -74.0034255981445)",US,NY,New York,,,655 W 34th St,655 W 34th St,LS,212-216-2426,75271-97781,Starbucks,Javits Convention Ctr Taxi North,-74.0034256,40.75678253
0101000020E6100000BEAFFCBF8B7F52C0F89BFD3F56604440,6,-300,100012519,10001,16813,12/8/13 22:41,GMT-05:00 America/New_York,Eastern Standard Time,"(40.7526321411133, -73.9929046630859)",US,NY,New York,,,494 Eighth Ave.,494 Eighth Ave.,CO,(212) 947-3860,7470-8467,Starbucks,35th & 8th,-73.99290466,40.75263214
0101000020E6100000E4C8FB1F3D7F52C06DBEF83F13604440,7,-300,100012101,10001,17697,12/8/13 22:41,GMT-05:00 America/New_York,Eastern Standard Time,"(40.7505874633789, -73.9881057739258)",US,NY,New York,,Room 900,151 W. 34th Street,"151 W. 34th Street, Room 900",CO,212 564 7025,7769-65280,Starbucks,Macy's 3rd Floor,-73.98810577,40.75058746
0101000020E61000000E3B00A0927F52C033970AE09C5F4440,8,-300,100016005,10001,18290,12/8/13 22:41,GMT-05:00 America/New_York,Eastern Standard Time,"(40.7469749450684, -73.9933242797852)",US,NY,New York,,,315 Seventh Avenue,315 Seventh Avenue,CO,646-336-6462,13538-107927,Starbucks,28th & 7th,-73.99332428,40.74697495
0101000020E6100000BE310400477F52C0E1FCFADF19604440,9,-300,10001,10001,90222,12/8/13 22:41,GMT-05:00 America/New_York,Eastern Standard Time,"(40.750789642334, -73.9887084960938)",US,NY,New York,,,151 W. 34th Street,151 W. 34th Street,CO,2122390342,17505-180084,Starbucks,Macy's 2nd Floor,-73.9887085,40.75078964
0101000020E61000004AF30160407F52C097B20400E45F4440,10,-300,10001,10001,113227,12/8/13 22:41,GMT-05:00 America/New_York,Eastern Standard Time,"(40.7491455078125, -73.9883041381836)",US,NY,New York,Manhattan Mall,,100 W 33rd St,"100 W 33rd St, Manhattan Mall",CO,2126954260,18777-195025,Starbucks,Manhattan Mall 1st Floor,-73.98830414,40.74914551
0101000020E610000009A3FE1F4C7F52C01BD1034011604440,11,-300,10001,10001,1005655,12/8/13 22:41,GMT-05:00 America/New_York,Eastern Standard Time,"(40.7505264282227, -73.9890213012695)",US,NY,New York,Macy's Herald Square,,151 W 34th St,"151 W 34th St, Macy's Herald Square",CO,212 2396524,20161-203724,Starbucks,Macy's Mezzanine,-73.9890213,40.75052643
0101000020E610000095250020637F52C0277FFFFFE25F4440,12,-300,10001,10001,1006756,7/15/15 4:00,GMT-05:00 America/New_York,Eastern Standard Time,"(40.7491149902344, -73.9904251098633)",US,NY,New York,,,11 Penn Plaza,11 Penn Plaza,CO,646-599-3512,23044-227244,Starbucks,32nd btwn 6th & 7th,-73.99042511,40.74911499
0101000020E61000001E1BFD3F398052C0C447FE3FD2604440,13,-300,10001,10001,1007160,1/1/16 5:00,GMT-05:00 America/New_York,Eastern Standard Time,"(40.7564163208008, -74.0034942626953)",US,NY,New York,,,655 W 34th St,655 W 34th St,LS,212-216-2400,21690-213064,Starbucks,Starbucks Level 3 Jacob Javits Cemt,-74.00349426,40.75641632
0101000020E6100000BA3EFF7F147F52C083610A20C65F4440,14,-300,10001,10001,1012266,10/9/15 4:00,GMT-05:00 America/New_York,Eastern Standard Time,"(40.748233795166, -73.9856262207031)",US,NY,New York,,130,350 Fifth Avenue,"350 Fifth Avenue, 130",CO,2125649141,26028-243049,Starbucks,33rd btwn 5th & 6th,-73.98562622,40.7482338
0101000020E61000006110FD7F418052C07EC5F91F09604440,15,-300,10001,10001,1013606,12/2/15 5:00,GMT-05:00 America/New_York,Eastern Standard Time,"(40.7502784729004, -74.0039978027344)",US,NY,New York,,,525 West 26th St,525 West 26th St,CO,347-387-7428,25274-240368,Starbucks,26th between 10th and 11th,-74.0039978,40.75027847
0101000020E61000000ACA02605B7F52C0B524F6BF125C4440,16,-300,100023133,10002,9589,12/8/13 22:41,GMT-05:00 America/New_York,Eastern Standard Time,"(40.7193222045898, -73.9899520874023)",US,NY,New York,,,80 Delancey Street,80 Delancey Street,CO,917 5341397,10044-99132,Starbucks,Allen & Delancey,-73.98995209,40.7193222
0101000020E61000004AF30160407F52C0ED530220765E4440,17,-300,100031414,10003,7771,12/8/13 22:41,GMT-05:00 America/New_York,Eastern Standard Time,"(40.737979888916, -73.9883041381836)",US,NY,New York,,,240 Park Avenue South,240 Park Avenue South,CO,212-375-1415,14442-122904,Starbucks,19th & Park,-73.98830414,40.73797989
0101000020E61000001AE9FB5F247F52C046C10080EB5D4440,18,-300,100032543,10003,11087,12/8/13 22:41,GMT-05:00 America/New_York,Eastern Standard Time,"(40.7337493896484, -73.9865951538086)",US,NY,New York,,,145 Third Avenue,145 Third Avenue,CO,212-677-7248,7622-22334,Starbucks,15th & 3rd,-73.98659515,40.73374939
0101000020E6100000CC6C04A0597F52C04E250340155E4440,19,-300,100033314,10003,16211,12/8/13 22:41,GMT-05:00 America/New_York,Eastern Standard Time,"(40.7350234985352, -73.9898452758789)",US,NY,New York,,,10 UNION SQUARE EAST,10 UNION SQUARE EAST,CO,(212) 982-8426,7378-939,Starbucks,Union Square East,-73.98984528,40.7350235
0101000020E61000007317FE5F777F52C06D7FFCDF705D4440,20,-300,100036904,10003,16517,12/8/13 22:41,GMT-05:00 America/New_York,Eastern Standard Time,"(40.7300071716309, -73.9916610717773)",US,NY,New York,,,13-25  Astor Place,13-25  Astor Place,CO,212-982-3753,825-2037,Starbucks,Lafayette & 8th Street,-73.99166107,40.73000717
0101000020E610000049CCFD1F317F52C01F5AF99F5B5D4440,21,-300,100035703,10003,18409,12/8/13 22:41,GMT-05:00 America/New_York,Eastern Standard Time,"(40.7293586730957, -73.9873733520508)",US,NY,New York,,,145 2nd Avenue,145 2nd Avenue,CO,212-780-0027,837-95594,Starbucks,2nd Ave. & 9th Street,-73.98737335,40.72935867
0101000020E6100000C9A00360367F52C0631F09A0BD5C4440,22,-300,100039430,10003,70170,12/8/13 22:41,GMT-05:00 America/New_York,Eastern Standard Time,"(40.724536895752, -73.9876937866211)",US,NY,New York,,,49 -1/2 First Avenue,49 -1/2 First Avenue,CO,2127771752,16255-162586,Starbucks,3rd St & First Avenue,-73.98769379,40.7245369
0101000020E6100000CB84FCBFEC7E52C0224DFE1F8E5D4440,23,-300,10003,10003,90278,12/8/13 22:41,GMT-05:00 America/New_York,Eastern Standard Time,"(40.730899810791, -73.9832000732422)",US,NY,New York,,,219 First Avenue,219 First Avenue,CO,212 2540358,17795-180024,Starbucks,13th & 1st,-73.98320007,40.73089981
0101000020E610000009E2FA7F6E7F52C08D3FF61F3E5E4440,24,-300,10003,10003,1013197,9/26/15 4:00,GMT-05:00 America/New_York,Eastern Standard Time,"(40.736270904541, -73.9911193847656)",US,NY,New York,,25,25 Union Square West,"25 Union Square West, 25",CO,6463366945,7540-241728,Starbucks,Union Square West,-73.99111938,40.7362709
0101000020E61000007D080500A27F52C0D898F81F705D4440,25,-300,10003,10003,1015672,9/17/16 4:00,GMT-05:00 America/New_York,Eastern Standard Time,"(40.7299842834473, -73.9942626953125)",US,NY,New York,,,10 Waverly Place,10 Waverly Place,CO,9292590304,47195-257105,Starbucks,10 Waverly Place,-73.9942627,40.72998428
0101000020E610000078AFFFDF7D7F52C0B5CD01409D5D4440,26,-300,10003,10003,1016069,10/4/16 4:00,GMT-05:00 America/New_York,Eastern Standard Time,"(40.7313613891602, -73.992057800293)",US,NY,New York,,,771 Broadway,771 Broadway,CO,,29939-255664,Starbucks,Broadway and 9th,-73.9920578,40.73136139
0101000020E61000004E250340D58052C039AD0420285A4440,27,-300,100042207,10004,12804,12/8/13 22:41,GMT-05:00 America/New_York,Eastern Standard Time,"(40.7043495178223, -74.0130157470703)",US,NY,New York,,,2 Broadway,2 Broadway,CO,212-344-4290,7920-88803,Starbucks,2 Broadway,-74.01301575,40.70434952
0101000020E61000000CAEFBBFD18052C0A0D3FBDFF4594440,28,-300,100042480,10004,13511,12/8/13 22:41,GMT-05:00 America/New_York,Eastern Standard Time,"(40.7027854919434, -74.0128021240234)",US,NY,New York,3 New York Plaza,,2 Water St,"2 Water St, 3 New York Plaza",CO,212-785-1082,7398-1655,Starbucks,Water & Whitehall Streets,-74.01280212,40.70278549
0101000020E610000042CEFBFFB88052C0AE9003C0425A4440,29,-300,100042501,10004,16214,12/8/13 22:41,GMT-05:00 America/New_York,Eastern Standard Time,"(40.7051620483398, -74.0112915039063)",US,NY,New York,,,55 Broad Street,55 Broad Street,CO,(212) 742-2490,7416-834,Starbucks,55 Broad Street,-74.0112915,40.70516205
0101000020E6100000A4C60060E78052C080D40540055A4440,30,-300,100041405,10004,16686,12/8/13 22:41,GMT-05:00 America/New_York,Eastern Standard Time,"(40.7032852172852, -74.0141220092773)",US,NY,New York,,,1 Battery Park Plaza,1 Battery Park Plaza,CO,2124821180,7244-646,Starbucks,State St & Pearl Streets,-74.01412201,40.70328522
0101000020E6100000122E0520C58052C08F8DFE9FDC594440,31,-300,10004,10004,1008845,2/20/15 5:00,GMT-05:00 America/New_York,Eastern Standard Time,"(40.7020454406738, -74.0120315551758)",US,NY,New York,,,1 New York Plaza,1 New York Plaza,CO,212-785-8409,22258-219066,Starbucks,Water St @ Broad (inside),-74.01203156,40.70204544
0101000020E6100000A66BFD5FBB8052C03AD40860F7594440,32,-300,10004,10004,1015445,8/2/16 4:00,GMT-05:00 America/New_York,Eastern Standard Time,"(40.7028617858887, -74.0114364624023)",US,NY,New York,,14th Floor,4 New York Plaza,"4 New York Plaza, 14th Floor",LS,7185081559,48069-251745,Starbucks,JP Morgan New York Plaza - 14th FL,-74.01143646,40.70286179
0101000020E61000002B720480958052C07CA20460305A4440,33,-300,100053510,10005,7912,12/8/13 22:41,GMT-05:00 America/New_York,Eastern Standard Time,"(40.7046012878418, -74.0091247558594)",US,NY,New York,,,110 Pearl Street,110 Pearl Street,CO,212-482-6530,10282-100718,Starbucks,Pearl & Hanover,-74.00912476,40.70460129
0101000020E610000054BD04C09B8052C0D19AF6FFB75A4440,34,-300,100051003,10005,9218,12/8/13 22:41,GMT-05:00 America/New_York,Eastern Standard Time,"(40.708740234375, -74.0095062255859)",US,NY,New York,,,55 Liberty Street,55 Liberty Street,CO,212-227-0372,7691-52959,Starbucks,Liberty & Nassau,-74.00950623,40.70874023
0101000020E610000090B402E06B8052C02A8AFC9F685A4440,35,-300,100051702,10005,1004742,12/8/13 22:41,GMT-05:00 America/New_York,Eastern Standard Time,"(40.7063179016113, -74.0065841674805)",US,NY,New York,,,80 Pine Street,80 Pine Street,CO,212-480-3970,7878-83763,Starbucks,Pearl & Maiden,-74.00658417,40.7063179
0101000020E610000037470480768052C0A87A0980375A4440,36,-300,10005,10005,1005523,12/8/13 22:41,GMT-05:00 America/New_York,Eastern Standard Time,"(40.7048187255859, -74.0072326660156)",US,NY,New York,,,99 Wall St.,99 Wall St.,CO,212-487-1906,20154-203326,Starbucks,99 Wall Street,-74.00723267,40.70481873
0101000020E6100000FC8E02C0888052C0CF7701405F5A4440,37,-300,10005,10005,1006984,4/3/14 4:00,GMT-05:00 America/New_York,Eastern Standard Time,"(40.7060317993164, -74.0083465576172)",US,NY,New York,,,60 Wall St,60 Wall St,CO,3474614068,20763-207924,Starbucks,60 Wall St,-74.00834656,40.7060318
0101000020E61000001B1000A0B38052C07C6308008E5A4440,38,-300,10005,10005,1011752,5/20/15 4:00,GMT-05:00 America/New_York,Eastern Standard Time,"(40.7074584960938, -74.0109634399414)",US,NY,New York,,,14 Wall St,14 Wall St,CO,6465966331,25818-242585,Starbucks,14 Wall St,-74.01096344,40.7074585
0101000020E61000000B6FFF5FEF8052C0991805A0D55A4440,39,-300,100061532,10006,7835,12/8/13 22:41,GMT-05:00 America/New_York,Eastern Standard Time,"(40.709644317627, -74.0146102905273)",US,NY,New York,,,85 West St,85 West St,LS,212-266-6162,75874-80213,Starbucks,Marriott Financial Center,-74.01461029,40.70964432
0101000020E6100000B2DAFCBFAA8052C00CAEFBBFD15A4440,40,-300,100061404,10006,14988,12/8/13 22:41,GMT-05:00 America/New_York,Eastern Standard Time,"(40.7095260620117, -74.0104217529297)",US,NY,New York,Liberty Plaza,,165 Broadway,"165 Broadway, Liberty Plaza",CO,212 6086481,9237-8938,Starbucks,165 Broadway - 1 Liberty,-74.01042175,40.70952606
0101000020E6100000ED530220B68052C04F64FF9FB75A4440,41,-300,100061604,10006,17705,12/8/13 22:41,GMT-05:00 America/New_York,Eastern Standard Time,"(40.7087287902832, -74.011116027832)",US,NY,New York,,,115 Broadway,115 Broadway,CO,212-732-9268,7788-64366,Starbucks,Broadway & Thames,-74.01111603,40.70872879
0101000020E6100000619204C0FC8052C03EDBF67F065B4440,42,-300,10006,10006,113971,12/8/13 22:41,GMT-05:00 America/New_York,Eastern Standard Time,"(40.7111358642578, -74.0154266357422)",US,NY,New York,,L105,200 Liberty St,"200 Liberty St, L105",CO,2125879512,9238-193184,Starbucks,Brookfield Place 1,-74.01542664,40.71113586
0101000020E610000002A5FCFF938052C0428FFF9F965B4440,43,-300,100071331,10007,8692,12/8/13 22:41,GMT-05:00 America/New_York,Eastern Standard Time,"(40.7155342102051, -74.009033203125)",US,NY,New York,,,125 Chambers Street,125 Chambers Street,CO,212-791-6368,7466-6651,Starbucks,Chambers and West Broadway,-74.0090332,40.71553421
0101000020E61000002B720480958052C0472701205D5B4440,44,-300,100072402,10007,11040,12/8/13 22:41,GMT-05:00 America/New_York,Eastern Standard Time,"(40.7137794494629, -74.0091247558594)",US,NY,New York,,,120 Church Street,120 Church Street,CO,212-513-1451,14841-127064,Starbucks,Church Street & Murray,-74.00912476,40.71377945
0101000020E6100000BCE3FB7FA88052C04866FD7FFF5A4440,45,-300,100073100,10007,16209,12/8/13 22:41,GMT-05:00 America/New_York,Eastern Standard Time,"(40.7109222412109, -74.0102844238281)",US,NY,New York,,,195 Broadway,195 Broadway,CO,212 3851104,7375-1557,Starbucks,195 Broadway,-74.01028442,40.71092224
0101000020E6100000E9210140618052C08336F75F805B4440,46,-300,100071814,10007,18526,12/8/13 22:41,GMT-05:00 America/New_York,Eastern Standard Time,"(40.7148551940918, -74.0059356689453)",US,NY,New York,,,291 Broadway,291 Broadway,CO,212 406 5310,7566-13122,Starbucks,Broadway & Reade,-74.00593567,40.71485519
0101000020E61000006AB3FB9F8D8052C06E280860FB5A4440,47,-300,10007,10007,1014357,4/22/16 4:00,GMT-05:00 America/New_York,Eastern Standard Time,"(40.7107963562012, -74.0086441040039)",US,NY,New York,,,222 Broadway,222 Broadway,CO,6466476873,25533-241228,Starbucks,222 Broadway,-74.0086441,40.71079636
0101000020E610000071B1FDBFC57E52C0073DFE7FDA5D4440,48,-300,100091850,10009,15099,12/8/13 22:41,GMT-05:00 America/New_York,Eastern Standard Time,"(40.7332305908203, -73.9808197021484)",US,NY,New York,,A,286 First Avenue,"286 First Avenue, A",CO,212-353-1214,7858-65800,Starbucks,17th & 1st,-73.9808197,40.73323059
0101000020E6100000E9210140617F52C0E52EFCBFEE5E4440,49,-300,100105203,10010,6756,12/8/13 22:41,GMT-05:00 America/New_York,Eastern Standard Time,"(40.7416610717773, -73.9903106689453)",US,NY,New York,,,14 W. 23rd St,14 W. 23rd St,CO,212-367-2050,13539-107570,Starbucks,23rd btwn 5th & 6th,-73.99031067,40.74166107
0101000020E61000009DC8FE3F6F7F52C036E103E0C45E4440,50,-300,100106945,10010,10251,12/8/13 22:41,GMT-05:00 America/New_York,Eastern Standard Time,"(40.7403831481934, -73.9911651611328)",US,NY,New York,,,4 W. 21st Street,4 W. 21st Street,CO,646-336-6583,10396-100662,Starbucks,21st & 5th,-73.99116516,40.74038315
0101000020E6100000C015FD5F7D7F52C0B9810A602D5F4440,51,-300,100102710,10010,11203,12/8/13 22:41,GMT-05:00 America/New_York,Eastern Standard Time,"(40.7435722351074, -73.9920272827148)",US,NY,New York,,,750 6th Avenue,750 6th Avenue,CO,646-230-7208,7587-18379,Starbucks,24th & 6th,-73.99202728,40.74357224
0101000020E610000032AF0200F07E52C0633701C0905E4440,52,-300,100105506,10010,16671,12/8/13 22:41,GMT-05:00 America/New_York,Eastern Standard Time,"(40.7387924194336, -73.9833984375)",US,NY,New York,,,296-300 Third Avenue,296-300 Third Avenue,CO,(212) 598-9651,7341-1273,Starbucks,23rd & 3rd,-73.98339844,40.73879242
0101000020E6100000D58DFB7F2A7F52C0631F09A0BD5E4440,53,-300,100104301,10010,17645,12/8/13 22:41,GMT-05:00 America/New_York,Eastern Standard Time,"(40.740161895752, -73.9869689941406)",US,NY,New York,,,304 Park Avenue South,304 Park Avenue South,CO,2124759025,7277-986,Starbucks,23rd & Park,-73.98696899,40.7401619
0101000020E610000013ACFDDF497F52C04A4AF6DF355F4440,54,-300,100107504,10010,70030,12/8/13 22:41,GMT-05:00 America/New_York,Eastern Standard Time,"(40.7438316345215, -73.988883972168)",US,NY,New York,,,1140 Broadway,1140 Broadway,CO,2122136519,16628-169564,Starbucks,26th & Broadway,-73.98888397,40.74383163
0101000020E61000006C19FC3FFF7E52C0101FF9FFC85E4440,55,-300,10010,10010,90244,12/8/13 22:41,GMT-05:00 America/New_York,Eastern Standard Time,"(40.7405090332031, -73.9843292236328)",US,NY,New York,,,50 Lexington Avenue,50 Lexington Avenue,CO,212 2542794,17452-180204,Starbucks,25th & Lex,-73.98432922,40.74050903
0101000020E61000006E6704C09D7E52C0651BFA1F475E4440,56,-300,10010,10010,1005905,12/8/13 22:41,GMT-05:00 America/New_York,Eastern Standard Time,"(40.7365455627441, -73.9783782958984)",US,NY,New York,,,400 E 23rd st,400 E 23rd st,CO,212-673-4213,20185-203785,Starbucks,23rd & 1st,-73.9783783,40.73654556
0101000020E6100000A4870400C57F52C0BDCB0360555E4440,57,-300,10011,10011,8919,12/8/13 22:41,GMT-05:00 America/New_York,Eastern Standard Time,"(40.7369804382324, -73.9963989257813)",US,NY,New York,,,510 Sixth Avenue,510 Sixth Avenue,CO,(212) 242-5981,7675-44919,Starbucks,14th & Sixth,-73.99639893,40.73698044
0101000020E6100000BAFF0220B27F52C071B1FDBF455F4440,58,-300,100111808,10011,10973,12/8/13 22:41,GMT-05:00 America/New_York,Eastern Standard Time,"(40.7443161010742, -73.995246887207)",US,NY,New York,,,229 Seventh Avenue,229 Seventh Avenue,CO,212-255-8750,14618-126424,Starbucks,24th & 7th,-73.99524689,40.7443161
0101000020E6100000030BFD9F058052C075E3FE9F1A5F4440,59,-300,100111602,10011,13467,12/8/13 22:41,GMT-05:00 America/New_York,Eastern Standard Time,"(40.7430000305176, -74.0003433227539)",US,NY,New York,,,177 Eighth Avenue,177 Eighth Avenue,CO,212 414 8786,7586-26827,Starbucks,19th & 8th,-74.00034332,40.74300003
0101000020E6100000D81A0060EB7F52C0ABC402805F5F4440,60,-300,100112210,10011,13905,12/8/13 22:41,GMT-05:00 America/New_York,Eastern Standard Time,"(40.7451019287109, -73.9987411499023)",US,NY,New York,,,300 W 23rd St.,300 W 23rd St.,CO,646-638-1571,3421-93578,Starbucks,West 23rd and 8th,-73.99874115,40.74510193
0101000020E61000003B520120FC7F52C0704BFD1FD45D4440,61,-300,10011,10011,14816,12/8/13 22:41,GMT-05:00 America/New_York,Eastern Standard Time,"(40.7330360412598, -73.9997634887695)",US,NY,New York,,,378 6th Avenue,378 6th Avenue,CO,212-477-2690,847-591,Starbucks,6th & Waverly (Waverly Place),-73.99976349,40.73303604
0101000020E61000002D56FDDF4B8052C07A150080EF5E4440,62,-300,100114962,10011,15686,12/8/13 22:41,GMT-05:00 America/New_York,Eastern Standard Time,"(40.7416839599609, -74.0046310424805)",US,NY,New York,,,76 9th Ave,76 9th Ave,CO,(646) 230-7145,7711-46019,Starbucks,15th & Ninth,-74.00463104,40.74168396
0101000020E61000004E250340158052C0B85A0620DE5E4440,63,-300,100115108,10011,16006,12/8/13 22:41,GMT-05:00 America/New_York,Eastern Standard Time,"(40.741153717041, -74.0012969970703)",US,NY,New York,,,124 Eighth Avenue,124 Eighth Avenue,CO,(212) 462-2020,7255-694,Starbucks,8th & 16th,-74.001297,40.74115372
0101000020E6100000B2DAFCBF2A8052C0290C04E0A35E4440,64,-300,100117710,10011,35545,12/8/13 22:41,GMT-05:00 America/New_York,Eastern Standard Time,"(40.7393760681152, -74.0026092529297)",US,NY,New York,,(space A),122 Greenwich Avenue,"122 Greenwich Avenue, (space A)",CO,212-366-4672,15461-158185,Starbucks,8th Ave just south of 14th St,-74.00260925,40.73937607
0101000020E610000010A10040048052C04E7CF7BF0A5D4440,65,-300,100125333,10012,6995,12/8/13 22:41,GMT-05:00 America/New_York,Eastern Standard Time,"(40.7268905639648, -74.0002593994141)",US,NY,New York,,,482 West Broadway,482 West Broadway,CO,212-254-0139,14219-116045,Starbucks,Houston & W. Broadway,-74.0002594,40.72689056
0101000020E61000003B91FD7FDE7F52C0CCAB00007C5C4440,66,-300,100124019,10012,9347,12/8/13 22:41,GMT-05:00 America/New_York,Eastern Standard Time,"(40.7225341796875, -73.9979553222656)",US,NY,New York,,,72 SPRING STREET,72 SPRING STREET,CO,212-219-2961,854-2051,Starbucks,Spring Street at Crosby St,-73.99795532,40.72253418
0101000020E6100000F369FC5FC17F52C08B1C0160655D4440,67,-300,10012,10012,14149,12/16/14 5:00,GMT-05:00 America/New_York,Eastern Standard Time,"(40.7296562194824, -73.9961776733398)",US,NY,New York,,,45 West 4th Street,45 West 4th Street,LS,212-995-3443,75194-74840,Starbucks,New York University,-73.99617767,40.72965622
0101000020E610000035BAFF9FB57F52C0EFA10AA0145D4440,68,-300,100122300,10012,16853,12/8/13 22:41,GMT-05:00 America/New_York,Eastern Standard Time,"(40.7271919250488, -73.9954605102539)",US,NY,New York,,,665 Broadway,665 Broadway,CO,917-534-0799,7497-8627,Starbucks,Broadway and Bond,-73.99546051,40.72719193
0101000020E61000004168FB5F078052C0C447FE3F525C4440,69,-300,100132664,10013,8907,12/8/13 22:41,GMT-05:00 America/New_York,Eastern Standard Time,"(40.7212600708008, -74.0004501342773)",US,NY,New York,,,471 Broadway,471 Broadway,CO,212-219-8787,7684-40482,Starbucks,Broadway & Grand,-74.00045013,40.72126007
0101000020E61000000ACA02605B8052C01F030520E65C4440,70,-300,100131218,10013,8947,12/8/13 22:41,GMT-05:00 America/New_York,Eastern Standard Time,"(40.725772857666, -74.0055770874023)",US,NY,New York,,,150 Varick Street,150 Varick Street,CO,646-230-9816,7626-33939,Starbucks,Spring and Varick,-74.00557709,40.72577286
0101000020E6100000DC4C0140008052C060E9F83FF25B4440,71,-300,100134118,10013,11834,12/8/13 22:41,GMT-05:00 America/New_York,Eastern Standard Time,"(40.7183303833008, -74.0000152587891)",US,NY,New York,,,241 Canal Street,241 Canal Street,CO,212-219-2725,7680-36959,Starbucks,Canal and Centre,-74.00001526,40.71833038
0101000020E6100000F5CFFCFF328052C0806AF61F9D5B4440,72,-300,100134008,10013,15295,12/8/13 22:41,GMT-05:00 America/New_York,Eastern Standard Time,"(40.7157325744629, -74.0031127929688)",US,NY,New York,,,111 Worth Street,111 Worth Street,CO,212-964-8846,7781-50879,Starbucks,Lafayette & Worth,-74.00311279,40.71573257
0101000020E610000050CAFF3F298052C0A4870400055C4440,73,-300,100133558,10013,17070,12/8/13 22:41,GMT-05:00 America/New_York,Eastern Standard Time,"(40.7189025878906, -74.0025177001953)",US,NY,New York,,,405 Broadway,405 Broadway,CO,646-613-0148,11934-106845,Starbucks,Broadway & Canal,-74.0025177,40.71890259
0101000020E61000002BB100E0778052C0C17BFDFFEE5B4440,74,-300,100132906,10013,66292,12/8/13 22:41,GMT-05:00 America/New_York,Eastern Standard Time,"(40.7182312011719, -74.0073165893555)",US,NY,New York,,,180 West Broadway,180 West Broadway,CO,2123437402,15751-162574,Starbucks,W Broadway & Leonard Street,-74.00731659,40.7182312
0101000020E6100000AD2A0320518052C005590520245C4440,75,-300,10013,10013,1007714,5/30/14 4:00,GMT-05:00 America/New_York,Eastern Standard Time,"(40.7198524475098, -74.0049514770508)",US,NY,New York,,,32 Avenue of the Americas,32 Avenue of the Americas,CO,2129660984,20259-184464,Starbucks,6th Ave at Walker Street,-74.00495148,40.71985245
0101000020E6100000D7F3FB1F1C8052C05F44FC3F5E5E4440,76,-300,100145203,10014,15174,12/8/13 22:41,GMT-05:00 America/New_York,Eastern Standard Time,"(40.7372512817383, -74.0017166137695)",US,NY,New York,,,93 Greenwich Avenue,93 Greenwich Avenue,CO,(212) 462-4697,7261-784,Starbucks,Greenwich Ave at Bank St,-74.00171661,40.73725128
0101000020E61000001AE9FB5F648052C0E223FF1FE95D4440,77,-300,100142854,10014,17329,12/8/13 22:41,GMT-05:00 America/New_York,Eastern Standard Time,"(40.7336769104004, -74.0061264038086)",US,NY,New York,,,518 Hudson Street,518 Hudson Street,CO,646-486-0524,11650-105785,Starbucks,Hudson & 10th,-74.0061264,40.73367691
0101000020E61000008CC1FD5F798052C08A9E08A0205D4440,78,-300,100144502,10014,17392,12/8/13 22:41,GMT-05:00 America/New_York,Eastern Standard Time,"(40.7275581359863, -74.0074081420898)",US,NY,New York,,,345 Hudson St.,345 Hudson St.,CO,646-486-0514,11649-105788,Starbucks,Hudson & King,-74.00740814,40.72755814
0101000020E61000007788FB9F2E8052C0DE6FF6FFD85D4440,79,-300,100143557,10014,18506,12/8/13 22:41,GMT-05:00 America/New_York,Eastern Standard Time,"(40.7331848144531, -74.0028457641602)",US,NY,New York,,,72 Grove Street,72 Grove Street,CO,646-486-2216,7547-14071,Starbucks,7th Ave at Grove Street,-74.00284576,40.73318481
0101000020E6100000126D0180278052C013ACFDDF895D4440,80,-300,10014,10014,1007715,7/30/14 4:00,GMT-05:00 America/New_York,Eastern Standard Time,"(40.730770111084, -74.0024108886719)",US,NY,New York,,,239 Bleecker St,239 Bleecker St,CO,212-206-1092,21252-210045,Starbucks,239 Bleecker St,-74.00241089,40.73077011
0101000020E61000002824FCFFF67E52C0BB6503C0E35F4440,81,-300,100163307,10016,8588,12/8/13 22:41,GMT-05:00 America/New_York,Eastern Standard Time,"(40.749137878418, -73.9838256835938)",US,NY,New York,,,373 5th Avenue,373 5th Avenue,CO,212-213-5363,10784-103069,Starbucks,35th & 5th,-73.98382568,40.74913788
0101000020E6100000DC0D05E0DD7E52C03B91FD7FDE5F4440,82,-300,100163903,10016,12352,12/8/13 22:41,GMT-05:00 America/New_York,Eastern Standard Time,"(40.7489776611328, -73.982292175293)",US,NY,New York,,,200 Madison Avenue,200 Madison Avenue,CO,212-684-6873,7536-8567,Starbucks,36th & Madison,-73.98229218,40.74897766
0101000020E6100000C1FD0440AA7E52C05BBB06E013604440,83,-300,100161301,10016,14439,12/8/13 22:41,GMT-05:00 America/New_York,Eastern Standard Time,"(40.7506065368652, -73.9791412353516)",US,NY,New York,,,90 Park Ave,90 Park Ave,CO,212-661-5489,8812-95025,Starbucks,39th & Park,-73.97914124,40.75060654
0101000020E61000005D9FFF3FCA7E52C0EFA10AA0945F4440,84,-300,100165902,10016,14526,12/8/13 22:41,GMT-05:00 America/New_York,Eastern Standard Time,"(40.7467231750488, -73.9810943603516)",US,NY,New York,,,3 Park Avenue,3 Park Avenue,CO,212-725-9469,8130-93577,Starbucks,34th & Park,-73.98109436,40.74672318
0101000020E6100000A4870400857E52C0343C07E0305F4440,85,-300,100164803,10016,15875,12/8/13 22:41,GMT-05:00 America/New_York,Eastern Standard Time,"(40.7436790466309, -73.9768676757813)",US,NY,New York,,,585 2nd Avenue,585 2nd Avenue,CO,212-684-1299,831-2028,Starbucks,32nd & 2nd,-73.97686768,40.74367905
0101000020E6100000A36000C0F57E52C0C5ADFEDF435F4440,86,-300,100168022,10016,16206,12/8/13 22:41,GMT-05:00 America/New_York,Eastern Standard Time,"(40.7442588806152, -73.9837493896484)",US,NY,New York,,,424 Park Avenue South,424 Park Avenue South,CO,212-725-0637,7427-1917,Starbucks,29th & Park,-73.98374939,40.74425888
0101000020E6100000C879FF1F277F52C0C5F009C05C5F4440,87,-300,100167701,10016,16215,12/8/13 22:41,GMT-05:00 America/New_York,Eastern Standard Time,"(40.7450180053711, -73.9867630004883)",US,NY,New York,,,261 Fifth Avenue,261 Fifth Avenue,CO,212-779-1557,7420-1902,Starbucks,29th & 5th,-73.986763,40.74501801
0101000020E6100000A4870400C57E52C0F5CFFCFFF25E4440,88,-300,10016,10016,114014,12/8/13 22:41,GMT-05:00 America/New_York,Eastern Standard Time,"(40.7417907714844, -73.9807739257813)",US,NY,New York,,,393 Third Ave,393 Third Ave,CO,212-481-4690,18860-193548,Starbucks,28th & 3rd,-73.98077393,40.74179077
0101000020E610000039EC0080CA7E52C0792DF89F42604440,89,-300,10016,10016,1013717,12/16/15 5:00,GMT-05:00 America/New_York,Eastern Standard Time,"(40.7520332336426, -73.9811096191406)",US,NY,New York,,,5 East 40th st,5 East 40th st,CO,2126897419,26158-243772,Starbucks,40th btwn Madison & 5th,-73.98110962,40.75203323
0101000020E6100000649D0160427E52C0D427FBDFF85F4440,90,-300,100175806,10017,6869,12/8/13 22:41,GMT-05:00 America/New_York,Eastern Standard Time,"(40.7497825622559, -73.9728012084961)",US,NY,New York,,,220 East 42nd St,220 East 42nd St,CO,212-867-1264,13455-107574,Starbucks,42nd & 2nd,-73.97280121,40.74978256
0101000020E6100000B15C0400667E52C071F0F91F68604440,91,-300,100173904,10017,8976,12/8/13 22:41,GMT-05:00 America/New_York,Eastern Standard Time,"(40.7531776428223, -73.9749755859375)",US,NY,New York,,,450 Lexington Avenue,450 Lexington Avenue,CO,2126825139,9242-9095,Starbucks,44th & Lex,-73.97497559,40.75317764
0101000020E610000089B600C0B37E52C06EA6002040604440,92,-300,100176304,10017,9351,12/8/13 22:41,GMT-05:00 America/New_York,Eastern Standard Time,"(40.7519569396973, -73.9797210693359)",US,NY,New York,,,295 Madison Avenue,295 Madison Avenue,CO,212-922-9078,7801-52999,Starbucks,41st & Madison,-73.97972107,40.75195694
0101000020E6100000E61604A09B7E52C02D3E05C078604440,93,-300,100174611,10017,11140,12/8/13 22:41,GMT-05:00 America/New_York,Eastern Standard Time,"(40.7536849975586, -73.9782485961914)",US,NY,New York,,,335 Madison Avenue,335 Madison Avenue,CO,(212) 370-3510,9244-9097,Starbucks,43rd & Madison,-73.9782486,40.753685
0101000020E61000008E27FEFF6A7E52C07AFD07601C604440,94,-300,100175612,10017,11854,12/8/13 22:41,GMT-05:00 America/New_York,Eastern Standard Time,"(40.7508659362793, -73.9752807617188)",US,NY,New York,,,150 E. 42nd Street,150 E. 42nd Street,CO,212-949-4122,7506-6650,Starbucks,42nd btwn 3rd & Lex,-73.97528076,40.75086594
0101000020E6100000EA480580307E52C02CD8042087604440,95,-300,100172013,10017,12091,12/8/13 22:41,GMT-05:00 America/New_York,Eastern Standard Time,"(40.7541236877441, -73.9717102050781)",US,NY,New York,,,757 Third Avenue,757 Third Avenue,CO,(212) 715-9884,7370-1274,Starbucks,48th & 3rd,-73.97171021,40.75412369
0101000020E6100000012704404F7E52C0F75C01E033604440,96,-300,100174024,10017,12402,12/8/13 22:41,GMT-05:00 America/New_York,Eastern Standard Time,"(40.7515830993652, -73.9735870361328)",US,NY,New York,,,685 Third Avenue,685 Third Avenue,CO,646 865 1250,7575-13125,Starbucks,43rd & 3rd,-73.97358704,40.7515831
0101000020E6100000DAA704406C7F52C0A7D1FDFF2C604440,97,-300,10017,10017,13516,12/8/13 22:41,GMT-05:00 America/New_York,Eastern Standard Time,"(40.7513732910156, -73.9909820556641)",US,NY,New York,,,450 7th Avenue,450 7th Avenue,CO,212-279-1122,7446-2301,Starbucks,34th & 7th,-73.99098206,40.75137329
0101000020E61000005707FEBF837E52C075A4024078604440,98,-300,10017,10017,15298,12/8/13 22:41,GMT-05:00 America/New_York,Eastern Standard Time,"(40.7536697387695, -73.9767913818359)",US,NY,New York,Grand Central Station,Track 35,7800 Grand Central Station,"7800 Grand Central Station, Track 35, Grand Central Station",CO,212-370-4161,7800-67600,Starbucks,Grand Central,-73.97679138,40.75366974
0101000020E61000007A54FCDF917E52C059EBF61F3A604440,99,-300,100175529,10017,15315,12/8/13 22:41,GMT-05:00 America/New_York,Eastern Standard Time,"(40.7517738342285, -73.977653503418)",US,NY,New York,,,125 Park Ave,125 Park Ave,CO,212-557-2718,7898-84140,Starbucks,42nd & Park,-73.9776535,40.75177383
0101000020E6100000CF7701405F7E52C098F1006006604440,100,-300,100175605,10017,16079,12/8/13 22:41,GMT-05:00 America/New_York,Eastern Standard Time,"(40.7501945495605, -73.9745635986328)",US,NY,New York,,,639 3rd Avenue,639 3rd Avenue,CO,(212) 973-1376,7342-1192,Starbucks,41st & 3rd,-73.9745636,40.75019455
0101000020E61000000EFC0340B07E52C03106F77F65604440,101,-300,100175001,10017,16090,12/8/13 22:41,GMT-05:00 America/New_York,Eastern Standard Time,"(40.7530975341797, -73.9795074462891)",US,NY,New York,,,330 Madison Ave,330 Madison Ave,CO,212-682-1880,7222-594,Starbucks,42nd & Madison,-73.97950745,40.75309753
0101000020E6100000B4280540497E52C0888FFC7FA4604440,102,-300,100172017,10017,16452,12/8/13 22:41,GMT-05:00 America/New_York,Eastern Standard Time,"(40.7550201416016, -73.9732208251953)",US,NY,New York,,,511 Lexington Avenue,511 Lexington Avenue,CO,212 4861964,7608-22381,Starbucks,48th & Lex,-73.97322083,40.75502014
0101000020E6100000F901FEDF877E52C083DF02E00A604440,103,-300,100176502,10017,16936,12/8/13 22:41,GMT-05:00 America/New_York,Eastern Standard Time,"(40.7503318786621, -73.9770431518555)",US,NY,New York,,,360 Lexington Avenue,360 Lexington Avenue,CO,212-953-1662,7611-32699,Starbucks,40th & Lex,-73.97704315,40.75033188
0101000020E61000007D20FD1F757E52C03E9CFA1FE4604440,104,-300,100171110,10017,17016,12/8/13 22:41,GMT-05:00 America/New_York,Eastern Standard Time,"(40.7569618225098, -73.9758987426758)",US,NY,New York,,,425 Madison Avenue,425 Madison Avenue,CO,212/644/9462,11736-106179,Starbucks,49th & Madison,-73.97589874,40.75696182
0101000020E61000002BF0FC3F9A7E52C06D400080CE604440,105,-300,100172422,10017,18588,12/8/13 22:41,GMT-05:00 America/New_York,Eastern Standard Time,"(40.7563018798828, -73.9781646728516)",US,NY,New York,,,575 Fifth Avenue,575 Fifth Avenue,CO,212-490-3189,7426-141352,Starbucks,47th & 5th,-73.97816467,40.75630188
0101000020E61000001D760040657E52C00FB9F85FD7604440,106,-300,10017,10017,1007200,5/23/14 4:00,GMT-05:00 America/New_York,Eastern Standard Time,"(40.7565727233887, -73.9749298095703)",US,NY,New York,,,280 Park Avenue,280 Park Avenue,CO,212 682-2586,19030-193844,Starbucks,49th & Park,-73.97492981,40.75657272
0101000020E610000072D80100557E52C0CA5DF87F5D604440,107,-300,10017,10017,1011956,6/25/15 4:00,GMT-05:00 America/New_York,Eastern Standard Time,"(40.7528533935547, -73.9739379882813)",US,NY,New York,,,2 Grand Central Tower,2 Grand Central Tower,CO,6466781753,25039-239665,Starbucks,45th btwn Lex & 3rd,-73.97393799,40.75285339
0101000020E6100000196B03A05F7F52C0179F02603C604440,108,-300,10018,10018,11433,12/8/13 22:41,GMT-05:00 America/New_York,Eastern Standard Time,"(40.7518424987793, -73.9902114868164)",US,NY,New York,,,462 7th Avenue,462 7th Avenue,CO,(212) 279-6432,7403-1712,Starbucks,35th & 7th,-73.99021149,40.7518425
0101000020E6100000E52EFCBF2E7F52C0D1DD01E050604440,109,-300,100186107,10018,12100,12/8/13 22:41,GMT-05:00 America/New_York,Eastern Standard Time,"(40.7524681091309, -73.9872283935547)",US,NY,New York,,,1372 Broadway,1372 Broadway,CO,(212) 921-0827,7238-645,Starbucks,Broadway Btwn 37th & 38th,-73.98722839,40.75246811
0101000020E6100000D2430280427F52C0E1BDFE7F77604440,110,-300,10018,10018,15836,12/8/13 22:41,GMT-05:00 America/New_York,Eastern Standard Time,"(40.7536468505859, -73.9884338378906)",US,NY,New York,,,525 7th Avenue,525 7th Avenue,CO,212-869-5273,7511-12733,Starbucks,39th & 7th,-73.98843384,40.75364685
0101000020E61000008E27FEFF6A7F52C0D09E0580AE604440,111,-300,100183000,10018,18444,12/8/13 22:41,GMT-05:00 America/New_York,Eastern Standard Time,"(40.7553253173828, -73.9909057617188)",US,NY,New York,,,600 Eighth Ave.,600 Eighth Ave.,CO,212 9977341,7468-8466,Starbucks,39th & 8th,-73.99090576,40.75532532
0101000020E61000006A74FF3F2B7F52C03188FEBF20604440,112,-300,100185436,10018,69880,12/8/13 22:41,GMT-05:00 America/New_York,Eastern Standard Time,"(40.7509994506836, -73.9870147705078)",US,NY,New York,,,977 Avenue of the Americas,977 Avenue of the Americas,CO,212-695-2915,16576-168024,Starbucks,36th & 6th,-73.98701477,40.75099945
0101000020E610000090B402E06B7F52C054BD04C0DB604440,113,-300,100181415,10018,1005154,12/8/13 22:41,GMT-05:00 America/New_York,Eastern Standard Time,"(40.756706237793, -73.9909591674805)",US,NY,New York,Port Authority Bus Terminal,,625 Eighth Avenue,"625 Eighth Avenue, Port Authority Bus Terminal",CO,212-273-9613,16676-158184,Starbucks,Port Authority South Wing,-73.99095917,40.75670624
0101000020E610000009A3FE1F0C7F52C0C6ECFA3F66604440,114,-300,10018,10018,1014050,1/21/16 5:00,GMT-05:00 America/New_York,Eastern Standard Time,"(40.7531204223633, -73.9851150512695)",US,NY,New York,,,1040 Sixth Avenue,1040 Sixth Avenue,CO,3479783853,26528-244444,Starbucks,6th between 39th and 40th,-73.98511505,40.75312042
0101000020E6100000126D0180A77E52C0DD09F65FE7614440,115,-300,100193300,10019,8920,12/8/13 22:41,GMT-05:00 America/New_York,Eastern Standard Time,"(40.7648735046387, -73.9789733886719)",US,NY,New York,Metropolitan Tower,,142 W. 57th Street,"142 W. 57th Street, Metropolitan Tower",CO,6467101906,7698-59480,Starbucks,57th & Seventh,-73.97897339,40.7648735
0101000020E61000008152FEFFC97E52C00FB9F85FD7614440,116,-300,100194369,10019,9675,12/8/13 22:41,GMT-05:00 America/New_York,Eastern Standard Time,"(40.7643852233887, -73.9810791015625)",US,NY,New York,,,870 7th Avenue,870 7th Avenue,CO,2125862142,8615-93968,Starbucks,55th & Seventh,-73.9810791,40.76438522
0101000020E61000001AE9FB5F247F52C03EDBF67F86614440,117,-300,100197416,10019,11196,12/8/13 22:41,GMT-05:00 America/New_York,Eastern Standard Time,"(40.7619171142578, -73.9865951538086)",US,NY,New York,,W-9,825 Eighth Avenue,"825 Eighth Avenue, W-9",CO,212 307 1421,7670-36979,Starbucks,49th & 8th,-73.98659515,40.76191711
0101000020E6100000ADA8FBDFD57E52C0628EF53F86614440,118,-300,100196004,10019,11393,12/8/13 22:41,GMT-05:00 America/New_York,Eastern Standard Time,"(40.7619094848633, -73.981803894043)",US,NY,New York,,,156 W 52nd St,156 W 52nd St,CO,212-581-6410,7673-15896,Starbucks,52nd & 7th,-73.98180389,40.76190948
0101000020E6100000A0D3FBDFF47E52C0E794FC5F60614440,119,-300,100196834,10019,11631,12/8/13 22:41,GMT-05:00 America/New_York,Eastern Standard Time,"(40.7607536315918, -73.9836959838867)",US,NY,New York,,,750 Seventh Avenue,750 Seventh Avenue,CO,(212) 974-0032,7282-987,Starbucks,49th & Seventh,-73.98369598,40.76075363
0101000020E61000006FCD04600F7F52C0977308A0C1614440,120,-300,100195761,10019,11952,12/8/13 22:41,GMT-05:00 America/New_York,Eastern Standard Time,"(40.7637214660645, -73.9853134155273)",US,NY,New York,,,871 8th Avenue,871 8th Avenue,CO,212-246-7699,7501-9812,Starbucks,52nd & 8th,-73.98531342,40.76372147
0101000020E61000002A8AFC9FE87E52C0FD72FB1F3F624440,121,-300,100191100,10019,13904,12/8/13 22:41,GMT-05:00 America/New_York,Eastern Standard Time,"(40.7675514221191, -73.9829483032227)",US,NY,New York,,,4 Columbus Circle,4 Columbus Circle,CO,2122650658,8614-93967,Starbucks,58th & Eight,-73.9829483,40.76755142
0101000020E6100000277FFFFFA27E52C069B70A2084614440,122,-300,10019,10019,14154,12/8/13 22:41,GMT-05:00 America/New_York,Eastern Standard Time,"(40.7618446350098, -73.9786987304688)",US,NY,New York,,,1330 6th Ave.,1330 6th Ave.,CO,212-969-9066,2784-91104,Starbucks,53rd & Sixth (NE Corner),-73.97869873,40.76184464
0101000020E610000009A3FE1F8C7E52C0DFD90520C1614440,123,-300,10019,10019,14568,12/8/13 22:41,GMT-05:00 America/New_York,Eastern Standard Time,"(40.7637062072754, -73.9773025512695)",US,NY,New York,,,1380 Sixth Avenue,1380 Sixth Avenue,CO,212-977-1382,10279-100661,Starbucks,56th & Sixth,-73.97730255,40.76370621
0101000020E6100000C6ECFA3FA67E52C074BCFA5FCB614440,124,-300,100193866,10019,16480,12/8/13 22:41,GMT-05:00 America/New_York,Eastern Standard Time,"(40.7640190124512, -73.9788970947266)",US,NY,New York,,,120 W. 56th Street,120 W. 56th Street,CO,212-262-9273,7696-46039,Starbucks,56th Btwn Sixth & Seventh,-73.97889709,40.76401901
0101000020E61000002F22FE1FEF7E52C07749FF3F8C614440,125,-300,100196234,10019,16633,12/8/13 22:41,GMT-05:00 America/New_York,Eastern Standard Time,"(40.762092590332, -73.9833450317383)",US,NY,New York,,,1656 Broadway,1656 Broadway,CO,212-397-7124,852-2047,Starbucks,æ51st & Broadway,-73.98334503,40.76209259
0101000020E610000004F30480327F52C05E1DF8FF8E614440,126,-300,100197316,10019,16666,12/8/13 22:41,GMT-05:00 America/New_York,Eastern Standard Time,"(40.7621765136719, -73.9874572753906)",US,NY,New York,,,325 W 49th St,325 W 49th St,CO,(212) 765-2205,7393-1367,Starbucks,49th btwn 8th & 9th,-73.98745728,40.76217651
0101000020E6100000680EFF9FF97E52C0BFEEF81F2E624440,127,-300,100193701,10019,16687,12/8/13 22:41,GMT-05:00 America/New_York,Eastern Standard Time,"(40.767032623291, -73.9839859008789)",US,NY,New York,,,322 West 57th Street,322 West 57th Street,CO,2123990714,7245-595,Starbucks,57th Btwn Eighth & Ninth,-73.9839859,40.76703262
0101000020E61000008DE801A0887E52C0624FF9DFE3614440,128,-300,10019,10019,18618,12/8/13 22:41,GMT-05:00 America/New_York,Eastern Standard Time,"(40.7647666931152, -73.9770889282227)",US,NY,New York,,,1411 Sixth Avenue,1411 Sixth Avenue,CO,212-664-1305,11765-106302,Starbucks,58th & Sixth,-73.97708893,40.76476669
0101000020E61000005EC60380D97E52C01983FBBFF2614440,129,-300,100194315,10019,18679,12/8/13 22:41,GMT-05:00 America/New_York,Eastern Standard Time,"(40.7652206420898, -73.9820251464844)",US,NY,New York,,,1740 Broadway,1740 Broadway,LS,,75491-113947,Starbucks,Limited Brands-NYC,-73.98202515,40.76522064
0101000020E6100000AA5E02E0AD7E52C094A707605E614440,130,-300,10019,10019,88886,12/8/13 22:41,GMT-05:00 America/New_York,Eastern Standard Time,"(40.7606925964355, -73.979362487793)",US,NY,New York,,,1290 Sixth Avenue,1290 Sixth Avenue,CO,212-977-4861,9239-162565,Starbucks,52nd Btwn Fifth & Sixth,-73.97936249,40.7606926
0101000020E61000006D7FFCDFB07E52C00B87F77F82614440,131,-300,10019,10019,90480,12/8/13 22:41,GMT-05:00 America/New_York,Eastern Standard Time,"(40.7617950439453, -73.9795455932617)",US,NY,New York,,,1301 Avenue of the Americas,1301 Avenue of the Americas,CO,212 9740902,17738-182205,Starbucks,53rd & Sixth (SW Corner),-73.97954559,40.76179504
0101000020E610000000000000407F52C00CEDF71F74624440,132,-300,10019,10019,1009088,3/11/15 4:00,GMT-05:00 America/New_York,Eastern Standard Time,"(40.7691688537598, -73.98828125)",US,NY,New York,,,475 West 57th st,475 West 57th st,CO,2122475489,23557-230825,Starbucks,57th & Tenth,-73.98828125,40.76916885
0101000020E61000008584FFDFDE7E52C0F1DCF77FC0614440,133,-300,10019,10019,1010184,7/30/14 4:00,GMT-05:00 America/New_York,Eastern Standard Time,"(40.7636871337891, -73.9823532104492)",US,NY,New York,,,1700 Broadway,1700 Broadway,CO,2122450761,8992-233044,Starbucks,54th and Broadway,-73.98235321,40.76368713
0101000020E61000001844FF5FD07E52C0477EF59F52624440,134,-300,10019,10019,1014682,4/26/16 4:00,GMT-05:00 America/New_York,Eastern Standard Time,"(40.7681465148926, -73.9814682006836)",US,NY,New York,,#34,1000 S Eighth Avenue,"1000 S Eighth Avenue, #34",CO,6466529813,26188-243831,Starbucks,Columbus Circle Subway,-73.9814682,40.76814651
0101000020E61000005C39FF9F187D52C0E0000A6090624440,135,-300,100213002,10021,8795,12/8/13 22:41,GMT-05:00 America/New_York,Eastern Standard Time,"(40.7700309753418, -73.9546279907227)",US,NY,New York,,,1445 First Avenue,1445 First Avenue,CO,212-472-7784,817-2015,Starbucks,75th & First,-73.95462799,40.77003098
0101000020E6100000F3EB03A03C7D52C096CAFC1FB7624440,136,-300,100212904,10021,15674,12/8/13 22:41,GMT-05:00 America/New_York,Eastern Standard Time,"(40.7712135314941, -73.9568252563477)",US,NY,New York,,,1449 Second Avenue,1449 Second Avenue,CO,212-472-0653,7682-50401,Starbucks,76th & Second,-73.95682526,40.77121353
0101000020E610000043F5FF3F487D52C0B73302E00E624440,137,-300,100215583,10021,65754,12/8/13 22:41,GMT-05:00 America/New_York,Eastern Standard Time,"(40.7660789489746, -73.9575347900391)",US,NY,New York,,,1281 First Avenue,1281 First Avenue,CO,212-472-1312,15685-158204,Starbucks,69th & First,-73.95753479,40.76607895
0101000020E6100000704BFD1F147E52C0C713FF7F35614440,138,-300,100224502,10022,7083,12/8/13 22:41,GMT-05:00 America/New_York,Eastern Standard Time,"(40.7594451904297, -73.9699783325195)",US,NY,New York,,,655 Lexington Avenue,655 Lexington Avenue,CO,212-308-5717,10841-103109,Starbucks,55th & Lex,-73.96997833,40.75944519
0101000020E6100000DEB201E0F17D52C0943DF83F76614440,139,-300,100221331,10022,7138,12/8/13 22:41,GMT-05:00 America/New_York,Eastern Standard Time,"(40.7614212036133, -73.967887878418)",US,NY,New York,,,731 Lexington Avenue,731 Lexington Avenue,CO,212-644-0692,10693-102303,Starbucks,58th btwn 3rd & Lex,-73.96788788,40.7614212
0101000020E6100000B60CFE9F3F7E52C09F2EFFDFE0604440,140,-300,100226828,10022,9231,12/8/13 22:41,GMT-05:00 America/New_York,Eastern Standard Time,"(40.7568626403809, -73.9726333618164)",US,NY,New York,,,560 Lexington Avenue,560 Lexington Avenue,CO,212-751-2937,7802-73320,Starbucks,50th & Lex,-73.97263336,40.75686264
0101000020E61000008C820100577E52C06642FE5F96614440,141,-300,100222519,10022,11467,12/8/13 22:41,GMT-05:00 America/New_York,Eastern Standard Time,"(40.7624015808105, -73.9740600585938)",US,NY,New York,,,725 5th Avenue,725 5th Avenue,CO,212-421-7154,7860-83021,Starbucks,Trump Tower @ 57th & Fifth,-73.97406006,40.76240158
0101000020E610000071B1FDBF057E52C049CCFD1F71614440,142,-300,100222050,10022,11862,12/8/13 22:41,GMT-05:00 America/New_York,Eastern Standard Time,"(40.7612648010254, -73.9691009521484)",US,NY,New York,,,135 East 57th Street,135 East 57th Street,CO,212-935-1866,7525-12712,Starbucks,57th & Lex,-73.96910095,40.7612648
0101000020E61000006EE5FC7F227E52C0C2240980F9604440,143,-300,100226030,10022,13388,12/8/13 22:41,GMT-05:00 America/New_York,Eastern Standard Time,"(40.7576141357422, -73.9708557128906)",US,NY,New York,,,599 Lexington,599 Lexington,CO,212-754-1864,7761-59819,Starbucks,52nd & Lex,-73.97085571,40.75761414
0101000020E61000005C39FF9F587E52C08B04094012614440,144,-300,100225901,10022,13907,12/8/13 22:41,GMT-05:00 America/New_York,Eastern Standard Time,"(40.7583694458008, -73.9741592407227)",US,NY,New York,,,45 E. 51st Street,45 E. 51st Street,CO,212-688-8834,8965-95114,Starbucks,51st btwn Park & Madison,-73.97415924,40.75836945
0101000020E6100000290C04E0237E52C0024E08801E614440,145,-300,100224614,10022,15679,12/8/13 22:41,GMT-05:00 America/New_York,Eastern Standard Time,"(40.7587432861328, -73.9709396362305)",US,NY,New York,,,630 Lexington Ave,630 Lexington Ave,CO,212-521-8075,7655-22330,Starbucks,54th & Lex,-73.97093964,40.75874329
0101000020E61000000A09FFBFFD7D52C01D760040A5604440,146,-300,100227744,10022,17627,12/8/13 22:41,GMT-05:00 America/New_York,Eastern Standard Time,"(40.7550430297852, -73.9686126708984)",US,NY,New York,,,943 Second Avenue,943 Second Avenue,CO,212-715-0752,7557-15836,Starbucks,50th & 2nd,-73.96861267,40.75504303
0101000020E61000005C78FBFF3A7E52C0EF37FB7FAC614440,147,-300,10022,10022,90579,12/8/13 22:41,GMT-05:00 America/New_York,Eastern Standard Time,"(40.7630767822266, -73.9723510742188)",US,NY,New York,,,600 Madison Avenue,600 Madison Avenue,CO,212 7591569,17478-177844,Starbucks,58th Btwn Madison & Fifth,-73.97235107,40.76307678
0101000020E610000016B7FA7F4F7E52C03538F85F3A614440,148,-300,10022,10022,1005802,12/8/13 22:41,GMT-05:00 America/New_York,Eastern Standard Time,"(40.759593963623, -73.9736022949219)",US,NY,New York,,,515 Madison Avenue,515 Madison Avenue,CO,212-371-3758,19024-191684,Starbucks,53rd & Madison,-73.97360229,40.75959396
0101000020E6100000E8FAFCFF517E52C07CF9F8DF25614440,149,-300,10022,10022,1010008,7/17/14 4:00,GMT-05:00 America/New_York,Eastern Standard Time,"(40.7589683532715, -73.9737548828125)",US,NY,New York,,,55 East 52nd Street,55 East 52nd Street,CO,2127507140,9241-229444,Starbucks,53rd Inside Park Ave Plaza,-73.97375488,40.75896835
0101000020E6100000030BFD9F057E52C0016600A0F1604440,150,-300,10022,10022,1010020,5/20/15 4:00,GMT-05:00 America/New_York,Eastern Standard Time,"(40.7573738098145, -73.9690933227539)",US,NY,New York,,,875 Third Avenue,875 Third Avenue,CO,6464774945,24485-237984,Starbucks,53rd & 3rd,-73.96909332,40.75737381
0101000020E6100000FC8E02C0087F52C0192C07407D624440,151,-300,100236924,10023,8735,12/8/13 22:41,GMT-05:00 America/New_York,Eastern Standard Time,"(40.7694473266602, -73.9849090576172)",US,NY,New York,,,2 Columbus Avenue,2 Columbus Avenue,CO,2124896757,7465-6649,Starbucks,59th & Columbus,-73.98490906,40.76944733
0101000020E610000013ACFDDFC97E52C01C8EF85FF8634440,152,-300,100238208,10023,9267,12/8/13 22:41,GMT-05:00 America/New_York,Eastern Standard Time,"(40.7810173034668, -73.981071472168)",US,NY,New York,,,2140 Broadway,2140 Broadway,CO,212-580-1141,7874-82723,Starbucks,75th & Broadway,-73.98107147,40.7810173
0101000020E6100000ABC40280DF7E52C00680096073624440,153,-300,100237603,10023,11270,12/8/13 22:41,GMT-05:00 America/New_York,Eastern Standard Time,"(40.7691459655762, -73.9823913574219)",US,NY,New York,,,1841 Broadway,1841 Broadway,CO,2123070162,7344-1271,Starbucks,60th and Broadway,-73.98239136,40.76914597
0101000020E6100000C9B8FB7F897E52C0D4E8FE7FD6634440,154,-300,100238403,10023,11532,12/8/13 22:41,GMT-05:00 America/New_York,Eastern Standard Time,"(40.7799835205078, -73.9771423339844)",US,NY,New York,,,338 Columbus Avenue,338 Columbus Avenue,CO,646-505-1106,7709-53019,Starbucks,76th & Columbus,-73.97714233,40.77998352
0101000020E61000009996FD5F9A7E52C05BBB06E093634440,155,-300,100232904,10023,11600,12/8/13 22:41,GMT-05:00 America/New_York,Eastern Standard Time,"(40.7779502868652, -73.9781723022461)",US,NY,New York,,,267-275 Columbus Ave,267-275 Columbus Ave,CO,(212) 579-7834,7317-1191,Starbucks,73rd & Columbus,-73.9781723,40.77795029
0101000020E61000009F2EFFDFE07E52C013ACFDDF89634440,156,-300,100233702,10023,15083,12/8/13 22:41,GMT-05:00 America/New_York,Eastern Standard Time,"(40.777645111084, -73.9824752807617)",US,NY,New York,,,2045 Broadway,2045 Broadway,CO,2124961551,7354-1272,Starbucks,70th & Broadway,-73.98247528,40.77764511
0101000020E61000004B32FEBFE27E52C03B520120BC624440,157,-300,100237005,10023,17786,12/8/13 22:41,GMT-05:00 America/New_York,Eastern Standard Time,"(40.7713661193848, -73.9825897216797)",US,NY,New York,,,1889 Broadway,1889 Broadway,CO,2122451362,11738-106177,Starbucks,63rd & Broadway,-73.98258972,40.77136612
0101000020E61000006B9B0380BA7E52C0D6360700F5624440,158,-300,10023,10023,1013064,9/29/15 4:00,GMT-05:00 America/New_York,Eastern Standard Time,"(40.7731018066406, -73.9801330566406)",US,NY,New York,,,47 W 66th St,47 W 66th St,LS,2124560388,25849-239047,Starbucks,ABC 77 West Cafe,-73.98013306,40.77310181
0101000020E6100000CCAB0000FC7E52C0180503002E634440,159,-300,10023,10023,1015342,8/2/16 4:00,GMT-05:00 America/New_York,Eastern Standard Time,"(40.7748413085938, -73.984130859375)",US,NY,Manhattan,Arts & Music,none,141 Amsterdam,"141 Amsterdam, none, Arts & Music",CO,6462768254,29173-252811,Starbucks,66th and Amsterdam,-73.98413086,40.77484131
0101000020E6100000220E02C06B7E52C00825066007654440,160,-300,100241703,10024,6590,12/8/13 22:41,GMT-05:00 America/New_York,Eastern Standard Time,"(40.7892875671387, -73.9753265380859)",US,NY,New York,,,2394 Broadway,2394 Broadway,CO,212-595-3404,14498-121264,Starbucks,88th & Broadway,-73.97532654,40.78928757
0101000020E6100000277FFFFFA27E52C0BD0A00C077644440,161,-300,100245805,10024,11483,12/8/13 22:41,GMT-05:00 America/New_York,Eastern Standard Time,"(40.7849044799805, -73.9786987304688)",US,NY,New York,,,2252 Broadway,2252 Broadway,CO,212-721-1267,839-2033,Starbucks,81st & Broadway,-73.97869873,40.78490448
0101000020E61000001E1BFD3F397E52C0E03F06C0B2644440,162,-300,100243405,10024,15082,12/8/13 22:41,GMT-05:00 America/New_York,Eastern Standard Time,"(40.7867050170898, -73.9722442626953)",US,NY,New York,,,540 Columbus Avenue,540 Columbus Avenue,CO,2124964163,7352-920,Starbucks,86th & Columbus,-73.97224426,40.78670502
0101000020E6100000921A03805D7E52C0EA0909204E644440,163,-300,100245130,10024,17571,12/8/13 22:41,GMT-05:00 America/New_York,Eastern Standard Time,"(40.783634185791, -73.9744567871094)",US,NY,New York,,,444 Columbus Avenue,444 Columbus Avenue,CO,212-769-2296,7394-1505,Starbucks,81st & Columbus,-73.97445679,40.78363419
0101000020E61000008E27FEFFAA7E52C098F1006086644440,164,-300,10024,10024,1012691,7/8/15 4:00,GMT-05:00 America/New_York,Eastern Standard Time,"(40.7853507995605, -73.9791870117188)",US,NY,New York,Broadway at 81st,,2261 Broadway,"2261 Broadway, Broadway at 81st",CO,212-799-0724,28466-250061,Teavana,Teavana - Broadway at 81st,-73.97918701,40.7853508
0101000020E6100000D7B4FFBFF97D52C03E5DFEBF41664440,165,-300,100254411,10025,7458,12/8/13 22:41,GMT-05:00 America/New_York,Eastern Standard Time,"(40.7988815307617, -73.9683685302734)",US,NY,New York,,,2690 Broadway,2690 Broadway,CO,212-531-8204,14218-103631,Starbucks,103rd & Broadway,-73.96836853,40.79888153
0101000020E6100000171DFB1FC17D52C0A810FA5F4F674440,166,-300,100257819,10025,11157,12/8/13 22:41,GMT-05:00 America/New_York,Eastern Standard Time,"(40.8071098327637, -73.9649124145508)",US,NY,New York,,,2929 Broadway,2929 Broadway,CO,212-932-0300,7534-12700,Starbucks,114th & Broadway,-73.96491241,40.80710983
0101000020E6100000DC0D05E0DD7D52C0DC4C014000674440,167,-300,100257817,10025,11432,12/8/13 22:41,GMT-05:00 America/New_York,Eastern Standard Time,"(40.8046951293945, -73.966667175293)",US,NY,New York,,,2853 Broadway,2853 Broadway,CO,2122807269,7386-1642,Starbucks,111th & Broadway,-73.96666718,40.80469513
0101000020E6100000BBA4FF1F467E52C02519FF5F71654440,168,-300,100257428,10025,13521,12/8/13 22:41,GMT-05:00 America/New_York,Eastern Standard Time,"(40.7925224304199, -73.973030090332)",US,NY,New York,,,2498 Broadway,2498 Broadway,CO,917-441-1643,7474-7588,Starbucks,93rd and Broadway,-73.97303009,40.79252243
0101000020E61000006110FD7F417E52C05CB7F75F9D654440,169,-300,100256924,10025,13552,12/8/13 22:41,GMT-05:00 America/New_York,Eastern Standard Time,"(40.7938652038574, -73.9727478027344)",US,NY,New York,The Lyric Building,,2521 Broadway,"2521 Broadway, The Lyric Building",CO,(212) 316-0374,7699-45959,Starbucks,95th & Broadway,-73.9727478,40.7938652
0101000020E6100000CED20440CB7D52C05D9FFF3FCA654440,170,-300,10025,10025,89150,12/8/13 22:41,GMT-05:00 America/New_York,Eastern Standard Time,"(40.7952346801758, -73.9655303955078)",US,NY,New York,,,805 Columbus Avenue,805 Columbus Avenue,CO,2122226582,17424-178284,Starbucks,100th & Columbus,-73.9655304,40.79523468
0101000020E61000005F44FC3F1E7E52C0E4C8FB1FFD654440,171,-300,10025,10025,1006372,12/11/13 5:00,GMT-05:00 America/New_York,Eastern Standard Time,"(40.7967872619629, -73.9705963134766)",US,NY,New York,,,2621 Broadway,2621 Broadway,CO,212-222-3972,21506-212805,Starbucks,99th & Broadway,-73.97059631,40.79678726
0101000020E6100000D4E8FE7F167D52C0E096FA3F28674440,172,-300,100260982,10026,10763,12/8/13 22:41,GMT-05:00 America/New_York,Eastern Standard Time,"(40.8059158325195, -73.9544982910156)",US,NY,New York,,,2195 Frederick Douglas Boulevard,2195 Frederick Douglas Boulevard,CO,212-662-1239,14441-122925,Starbucks,118th & Frederick Douglas Blvd.,-73.95449829,40.80591583
0101000020E6100000535704206A7D52C0B11D08A083664440,173,-300,10026,10026,1012150,7/2/15 4:00,GMT-05:00 America/New_York,Eastern Standard Time,"(40.8008918762207, -73.959602355957)",US,NY,New York,,,321 W 110th Street,321 W 110th Street,CO,347-637-0214,25348-240404,Starbucks,110th & Manhattan,-73.95960236,40.80089188
0101000020E610000037470480B67C52C0F50EF95F95674440,174,-300,100274466,10027,7747,12/8/13 22:41,GMT-05:00 America/New_York,Eastern Standard Time,"(40.8092460632324, -73.9486389160156)",US,NY,New York,,,201 W. 125th Street,201 W. 125th Street,CO,212-222-2872,14601-126966,Starbucks,125th & Adam Clayton,-73.94863892,40.80924606
0101000020E6100000F3EB03A07C7C52C0C6ECFA3F66674440,175,-300,100274512,10027,12294,12/8/13 22:41,GMT-05:00 America/New_York,Eastern Standard Time,"(40.8078079223633, -73.9451065063477)",US,NY,New York,85 West 125th Street,,77-83 West 125th Street,"77-83 West 125th Street, 85 West 125th Street",CO,917-492-2454,7456-3949,Starbucks,125th & Lenox,-73.94510651,40.80780792
0101000020E6100000566201C02F7D52C0799707C0AA634440,176,-300,100282001,10028,10249,12/8/13 22:41,GMT-05:00 America/New_York,Eastern Standard Time,"(40.7786483764648, -73.9560394287109)",US,NY,New York,,,1261 Lexington Avenue,1261 Lexington Avenue,CO,212-879-1764,11277-104884,Starbucks,85th & Lexington,-73.95603943,40.77864838
0101000020E61000009F2EFFDF207D52C06F24F9DF84634440,177,-300,100281967,10028,12330,12/8/13 22:41,GMT-05:00 America/New_York,Eastern Standard Time,"(40.7774925231934, -73.9551315307617)",US,NY,New York,,,1488 Third Avenue #A,1488 Third Avenue #A,CO,212-744-7458,9439-96684,Starbucks,84th & Third,-73.95513153,40.77749252
0101000020E61000003CF7FD1FD07C52C0A39FFC1F58634440,178,-300,100284304,10028,12482,12/8/13 22:41,GMT-05:00 America/New_York,Eastern Standard Time,"(40.7761268615723, -73.9502029418945)",US,NY,New York,,,1631 1st Ave,1631 1st Ave,CO,212-737-6534,7672-48619,Starbucks,85th & First,-73.95020294,40.77612686
0101000020E6100000E262FB7FCB7C52C08F8DFE9FDC624440,179,-300,100287002,10028,13917,12/8/13 22:41,GMT-05:00 America/New_York,Eastern Standard Time,"(40.7723579406738, -73.9499206542969)",US,NY,New York,,,1515 York Avenue,1515 York Avenue,CO,212-472-3581,8770-94772,Starbucks,80th & York,-73.94992065,40.77235794
0101000020E61000005A12FB5F097D52C09564FC7FC5634440,180,-300,10028,10028,1006781,3/27/14 4:00,GMT-05:00 America/New_York,Eastern Standard Time,"(40.7794647216797, -73.9536972045898)",US,NY,New York,,,1542 Third Avenue,1542 Third Avenue,CO,212-369-2949,20679-207324,Starbucks,87th & Third,-73.9536972,40.77946472
0101000020E610000078EEFB3F207D52C0A39FFC1FD8634440,181,-300,10028,10028,1012513,7/4/15 4:00,GMT-05:00 America/New_York,Eastern Standard Time,"(40.7800331115723, -73.9550933837891)",US,NY,New York,Manhattan Project,#1291,1291 Lexington Ave.,"1291 Lexington Ave., #1291, Manhattan Project",CO,212-831-5738,28382-250254,Teavana,Teavana - Manhattan Project,-73.95509338,40.78003311
0101000020E61000002C170180697D52C078700380DB634440,182,-300,10028,10028,1015661,10/1/16 4:00,GMT-05:00 America/New_York,Eastern Standard Time,"(40.7801361083984, -73.9595642089844)",US,NY,New York,,,1142 Madison Ave,1142 Madison Ave,CO,2122881506,29940-255942,Starbucks,85th & Madison,-73.95956421,40.78013611
0101000020E6100000B2C204A0D77C52C0E1FCFADF99644440,183,-300,100297307,10029,19114,12/8/13 22:41,GMT-05:00 America/New_York,Eastern Standard Time,"(40.785945892334, -73.9506607055664)",US,NY,New York,,,1491 Lexington Avenue,1491 Lexington Avenue,CO,212-369-0313,5114-153466,Starbucks,96th & Lexington,-73.95066071,40.78594589
0101000020E6100000B15C0400267C52C0EDD50960B16B4440,184,-300,100321508,10032,18042,12/8/13 22:41,GMT-05:00 America/New_York,Eastern Standard Time,"(40.8413505554199, -73.9398193359375)",US,NY,New York,,,4001 Broadway,4001 Broadway,CO,917-521-0342,14300-116726,Starbucks,168th & Broadway,-73.93981934,40.84135056
0101000020E6100000938003200F7C52C0CE1101A0ED6C4440,185,-300,100334516,10033,15692,12/8/13 22:41,GMT-05:00 America/New_York,Eastern Standard Time,"(40.851001739502, -73.9384231567383)",US,NY,New York,,,803 W 181st St,803 W 181st St,CO,212-927-4272,7640-30819,Starbucks,181st & Fort Washington,-73.93842316,40.85100174
0101000020E610000053D5FCDFAE7B52C014D30120D9654440,186,-300,100354409,10035,19040,12/8/13 22:41,GMT-05:00 America/New_York,Eastern Standard Time,"(40.7956886291504, -73.9325485229492)",US,NY,New York,,,517 E 117th St,517 E 117th St,LS,212-835-0860,1379-145445,Starbucks,Target East River Plaza T-2380,-73.93254852,40.79568863
0101000020E6100000553BFD7FE07E52C0C52F0620FF604440,187,-300,100362601,10036,6945,12/8/13 22:41,GMT-05:00 America/New_York,Eastern Standard Time,"(40.7577857971191, -73.9824523925781)",US,NY,New York,,,1185 Avenue of the Americas,1185 Avenue of the Americas,CO,212-730-7645,14241-118145,Starbucks,NHL store @ 47th & Sixth,-73.98245239,40.7577858
0101000020E610000013ACFDDF497F52C0A278F8DF08614440,188,-300,100367114,10036,12039,12/8/13 22:41,GMT-05:00 America/New_York,Eastern Standard Time,"(40.7580833435059, -73.988883972168)",US,NY,New York,,,684 Eighth Avenue,684 Eighth Avenue,CO,(212) 398-9702,7263-890,Starbucks,43rd & 8th,-73.98888397,40.75808334
0101000020E6100000D859FCBF4D7F52C006D7FDDFE8604440,189,-300,100367201,10036,12705,12/8/13 22:41,GMT-05:00 America/New_York,Eastern Standard Time,"(40.7571067810059, -73.9891204833984)",US,NY,New York,,,251 West 42nd Street,251 West 42nd Street,CO,212-398-1982,7890-85122,Starbucks,42nd & 8th,-73.98912048,40.75710678
0101000020E610000037470480F67E52C0AE510760A0604440,190,-300,100366712,10036,13481,12/8/13 22:41,GMT-05:00 America/New_York,Eastern Standard Time,"(40.7548942565918, -73.9837951660156)",US,NY,New York,,,1100 Avenue of the Americas,1100 Avenue of the Americas,CO,(212) 398-4508,7273-984,Starbucks,42nd & 6th,-73.98379517,40.75489426
0101000020E6100000A62C0100197F52C0CC6C04A0D9604440,191,-300,100364015,10036,13918,12/8/13 22:41,GMT-05:00 America/New_York,Eastern Standard Time,"(40.7566413879395, -73.9859008789063)",US,NY,New York,,,1500 Broadway,1500 Broadway,CO,212-221-7515,8769-93576,Starbucks,43rd & Broadway,-73.98590088,40.75664139
0101000020E610000086AB03202E7F52C0F89BFD3F56614440,192,-300,100367017,10036,14350,12/8/13 22:41,GMT-05:00 America/New_York,Eastern Standard Time,"(40.7604446411133, -73.987190246582)",US,NY,New York,,,770 Eighth Ave,770 Eighth Ave,CO,212-830-9001,2785-89743,Starbucks,47th & 8th,-73.98719025,40.76044464
0101000020E610000028E5FF9F147F52C0DF57FEDF05614440,193,-300,100364098,10036,16303,12/8/13 22:41,GMT-05:00 America/New_York,Eastern Standard Time,"(40.7579917907715, -73.9856338500977)",US,NY,New York,,,1535 Broadway,1535 Broadway,LS,212-398-1900,75589-26767,Starbucks,Marriott Marquis - Street Level,-73.98563385,40.75799179
0101000020E610000027BEFB5F857F52C064DCFDBF24614440,194,-300,100363706,10036,16465,12/8/13 22:41,GMT-05:00 America/New_York,Eastern Standard Time,"(40.7589340209961, -73.9925155639648)",US,NY,New York,,,593 Ninth Ave,593 Ninth Ave,CO,212-594-7846,9467-97021,Starbucks,43rd & 9th,-73.99251556,40.75893402
0101000020E6100000CCAB0000FC7E52C0F54DF5BFB7604440,195,-300,100366706,10036,20501,12/8/13 22:41,GMT-05:00 America/New_York,Eastern Standard Time,"(40.7556076049805, -73.984130859375)",US,NY,New York,,,1101 - 1109 Avenue of the Americas,1101 - 1109 Avenue of the Americas,CO,212-382-3917,15440-156484,Starbucks,43rd & Sixth,-73.98413086,40.7556076
0101000020E6100000A9F801407C7F52C015BB090006614440,196,-300,10036,10036,91201,12/8/13 22:41,GMT-05:00 America/New_York,Eastern Standard Time,"(40.7579956054688, -73.9919586181641)",US,NY,New York,,,350 West 42nd Street,350 West 42nd Street,CO,2122444176,17496-180205,Starbucks,42nd & 9th,-73.99195862,40.75799561
0101000020E6100000224DFE1F0E7F52C0DCCE08803B614440,197,-300,10036,10036,1005509,12/8/13 22:41,GMT-05:00 America/New_York,Eastern Standard Time,"(40.7596282958984, -73.985237121582)",US,NY,New York,,,1585 Broadway,1585 Broadway,CO,212-541-7515,7215-142646,Starbucks,47th & Broadway,-73.98523712,40.7596283
0101000020E610000047E804C0BA7E52C0BC8C0700B3604440,198,-300,10036,10036,1010241,8/3/14 4:00,GMT-05:00 America/New_York,Eastern Standard Time,"(40.7554626464844, -73.9801483154297)",US,NY,New York,,,2 West 45th,2 West 45th,CO,2128690619,7462-233844,Starbucks,45th & 5th,-73.98014832,40.75546265
0101000020E6100000F1850300CB7E52C090360A20E7604440,199,-300,10036,10036,1014671,4/21/16 4:00,GMT-05:00 America/New_York,Eastern Standard Time,"(40.7570533752441, -73.9811401367188)",US,NY,New York,,,55 West 46th st,55 West 46th st,CO,646.647.5558,28168-250311,Starbucks,46th between 6th and 5th,-73.98114014,40.75705338
0101000020E61000001AAAFFFF818052C0B4E908E0E65A4440,200,-300,100382504,10038,10655,12/8/13 22:41,GMT-05:00 America/New_York,Eastern Standard Time,"(40.7101707458496, -74.0079345703125)",US,NY,New York,,,130 Fulton Street,130 Fulton Street,CO,212-962-0439,14318-119964,Starbucks,Nassau & Fulton,-74.00793457,40.71017075
0101000020E6100000841EFF3F6D8052C0FA280220175B4440,201,-300,100381551,10038,12020,12/8/13 22:41,GMT-05:00 America/New_York,Eastern Standard Time,"(40.7116432189941, -74.0066680908203)",US,NY,New York,,#4,38 Park Row,"38 Park Row, #4",CO,212-608-8073,849-2059,Starbucks,Park Row at Beekman St,-74.00666809,40.71164322
0101000020E61000001E1BFD3F798052C0841EFF3FAD5A4440,202,-300,100384512,10038,16844,12/8/13 22:41,GMT-05:00 America/New_York,Eastern Standard Time,"(40.7084121704102, -74.0074005126953)",US,NY,New York,,,100 William Street,100 William Street,CO,212-509-9709,7493-6648,Starbucks,100 Williams Street,-74.00740051,40.70841217
0101000020E6100000224DFE1F4E8052C015BB0900865A4440,203,-300,100383524,10038,90577,12/8/13 22:41,GMT-05:00 America/New_York,Eastern Standard Time,"(40.7072143554688, -74.004768371582)",US,NY,New York,,,135 John Street,135 John Street,CO,2123440894,16627-169964,Starbucks,John & Water Streets,-74.00476837,40.70721436
0101000020E61000002658FBBF537C52C0F635FD9F64694440,204,-300,100393159,10039,18230,12/8/13 22:41,GMT-05:00 America/New_York,Eastern Standard Time,"(40.8233833312988, -73.9426116943359)",US,NY,New York,,,301 W. 145th St.,301 W. 145th St.,CO,212-690-7835,11648-105796,Starbucks,145th & Bradhurst,-73.94261169,40.82338333
0101000020E61000005C39FF9F587B52C0960D0800D06E4440,205,-300,10040,10040,1006441,1/4/14 5:00,GMT-05:00 America/New_York,Eastern Standard Time,"(40.86572265625, -73.9272842407227)",US,NY,New York,,,4761 Broadway,4761 Broadway,CO,212-304-3632,20759-207804,Starbucks,Broadway & Dyckman,-73.92728424,40.86572266
0101000020E61000003B520120FC7C52C03AA9F59F31614440,206,-300,100440192,10044,7098,12/8/13 22:41,GMT-05:00 America/New_York,Eastern Standard Time,"(40.7593269348145, -73.9528884887695)",US,NY,New York,,,455 Main Street,455 Main Street,CO,212-371-1298,10751-100660,Starbucks,Roosevelt Island,-73.95288849,40.75932693
0101000020E6100000498D01C0CE7D52C08AF5FC1F96614440,207,-300,100658501,10065,7919,12/8/13 22:41,GMT-05:00 America/New_York,Eastern Standard Time,"(40.762393951416, -73.9657440185547)",US,NY,New York,,,1021 Third Avenue,1021 Third Avenue,CO,212-486-6764,10608-101495,Starbucks,60th & Third,-73.96574402,40.76239395
0101000020E610000046C10080AB7D52C0EFF8FE1F0A624440,208,-300,100656606,10065,11721,12/8/13 22:41,GMT-05:00 America/New_York,Eastern Standard Time,"(40.7659339904785, -73.9635925292969)",US,NY,New York,,,1128 Third Avenue,1128 Third Avenue,CO,212-472-6535,821-2019,Starbucks,66th & Third,-73.96359253,40.76593399
0101000020E6100000388600E0D87D52C00F6204E0E1614440,210,-300,10065,10065,116566,12/8/13 22:41,GMT-05:00 America/New_York,Eastern Standard Time,"(40.764705657959, -73.9663619995117)",US,NY,New York,,,822 Lexington Ave,822 Lexington Ave,CO,212-572-0984,18509-188684,Starbucks,63rd & Lexington,-73.966362,40.76470566
0101000020E61000004CD7FABFB67D52C03061FA7FD1614440,211,-300,10065,10065,1014942,5/12/16 4:00,GMT-05:00 America/New_York,Eastern Standard Time,"(40.7642059326172, -73.9642791748047)",US,NY,New York,,,1077 3rd Avenue,1077 3rd Avenue,CO,,29941-255665,Starbucks,63rd & 3rd Ave,-73.96427917,40.76420593
0101000020E6100000F9C20180657D52C0BF58084016634440,212,-300,100750401,10075,11688,12/8/13 22:41,GMT-05:00 America/New_York,Eastern Standard Time,"(40.7741165161133, -73.9593200683594)",US,NY,New York,,#4,1117 Lexington Ave.,"1117 Lexington Ave., #4",CO,212-517-8476,823-2018,Starbucks,78th & Lexington,-73.95932007,40.77411652
0101000020E6100000388600E0187D52C05EC6038019634440,213,-300,10075,10075,1011437,1/29/15 5:00,GMT-05:00 America/New_York,Eastern Standard Time,"(40.7742156982422, -73.9546432495117)",US,NY,New York,,,245 East 80th St,245 East 80th St,CO,2124727972,818-227125,Starbucks,80th & Second,-73.95464325,40.7742157
0101000020E610000099570100787E52C04C98FE5F54614440,214,-300,10103,10103,1006912,3/31/14 4:00,GMT-05:00 America/New_York,Eastern Standard Time,"(40.7603874206543, -73.97607421875)",US,NY,New York,,2nd floor,666 Fifth Avenue,"666 Fifth Avenue, 2nd floor",CO,212-956-2795,19862-191464,Starbucks,UNIQLO @ 53rd & Fifth,-73.97607422,40.76038742
0101000020E610000064DCFDBFA47E52C0A4C60060A7614440,215,-300,10105,10105,15427,12/8/13 22:41,GMT-05:00 America/New_York,Eastern Standard Time,"(40.7629203796387, -73.9788055419922)",US,NY,New York,,,1345 6th Ave,1345 6th Ave,CO,(212) 265-8610,9240-9093,Starbucks,Secure Access: 55th & Sixth,-73.97880554,40.76292038
0101000020E61000009830FDBFE87E52C06642FE5F16624440,216,-300,10107,10107,1005900,12/8/13 22:41,GMT-05:00 America/New_York,Eastern Standard Time,"(40.7663078308105, -73.9829559326172)",US,NY,New York,,,250 W 57th St,250 W 57th St,CO,212-586-0940,19890-198365,Starbucks,57th & Eighth,-73.98295593,40.76630783
0101000020E6100000003FFC5FA27E52C061D100201F614440,217,-300,101120015,10112,11153,12/8/13 22:41,GMT-05:00 America/New_York,Eastern Standard Time,"(40.7587623596191, -73.9786605834961)",US,NY,New York,,Space A,30 Rockefeller Plaza,"30 Rockefeller Plaza, Space A",CO,212-586-0914,7443-3688,Starbucks,Rockefeller Center Concourse,-73.97866058,40.75876236
0101000020E610000000000000C07E52C0A87A098037614440,218,-300,101120015,10112,12247,12/8/13 22:41,GMT-05:00 America/New_York,Eastern Standard Time,"(40.7595062255859, -73.98046875)",US,NY,New York,,,30 Rockefeller Plaza,30 Rockefeller Plaza,CO,(212) 397-7950,7444-3689,Starbucks,Rockefeller Center Subway,-73.98046875,40.75950623
0101000020E6100000DEF1FD3F147F52C0704BFD1FD45F4440,219,-300,101180110,10118,7549,12/8/13 22:41,GMT-05:00 America/New_York,Eastern Standard Time,"(40.7486610412598, -73.9856109619141)",US,NY,New York,,,350 Fifth Avenue,350 Fifth Avenue,CO,212-268-5471,11764-106301,Starbucks,Empire State Building,-73.98561096,40.74866104
0101000020E6100000C9B8FB7F897F52C00F7AFCFF34604440,220,-300,101190002,10119,9206,12/8/13 22:41,GMT-05:00 America/New_York,Eastern Standard Time,"(40.7516174316406, -73.9927673339844)",US,NY,New York,,,1 Penn Plaza,1 Penn Plaza,CO,(212) 760-3001,7353-835,Starbucks,One Penn Plaza,-73.99276733,40.75161743
0101000020E6100000C7D40220937F52C008BBF63F1F604440,221,-300,101190002,10119,15306,12/8/13 22:41,GMT-05:00 America/New_York,Eastern Standard Time,"(40.7509536743164, -73.9933547973633)",US,NY,New York,,,1 Penn Plaza Concourse Level,1 Penn Plaza Concourse Level,CO,212-736-3206,7851-80623,Starbucks,"Penn Station by A,C,E",-73.9933548,40.75095367
0101000020E610000071720160A37C52C059EBF61FBA634440,222,-300,101285153,10128,8923,12/8/13 22:41,GMT-05:00 America/New_York,Eastern Standard Time,"(40.7791175842285, -73.9474716186523)",US,NY,New York,,,400 East 90th Street,400 East 90th Street,CO,212-987-0891,7663-40483,Starbucks,90th & First,-73.94747162,40.77911758
0101000020E6100000F89BFD3F167D52C0A976FAFFC0644440,223,-300,101280712,10128,12003,12/8/13 22:41,GMT-05:00 America/New_York,Eastern Standard Time,"(40.7871398925781, -73.9544830322266)",US,NY,New York,,,1378 Madison Avenue,1378 Madison Avenue,CO,212-534-7225,7558-15834,Starbucks,96th & Madison,-73.95448303,40.78713989
0101000020E61000001AE9FB5F247D52C01F5AF99FDB634440,224,-300,101281116,10128,12096,12/8/13 22:41,GMT-05:00 America/New_York,Eastern Standard Time,"(40.7801399230957, -73.9553451538086)",US,NY,New York,,,120 EAST 87TH ST,120 EAST 87TH ST,CO,212-426-2580,7216-592,Starbucks,87th & Lexington,-73.95534515,40.78013992
0101000020E6100000AC42FB3FE47C52C0DD3409202D644440,225,-300,101283618,10128,17572,12/8/13 22:41,GMT-05:00 America/New_York,Eastern Standard Time,"(40.7826271057129, -73.9514312744141)",US,NY,New York,,,1642 Third Avenue,1642 Third Avenue,CO,212-360-0425,7407-1674,Starbucks,92nd & Third,-73.95143127,40.78262711
0101000020E6100000BAFF0220B27C52C04C59020032644440,226,-300,10128,10128,1015899,9/28/16 4:00,GMT-05:00 America/New_York,Eastern Standard Time,"(40.7827758789063, -73.948371887207)",US,NY,New York,,,245 East 93rd St,245 East 93rd St,CO,6464558766,25139-240084,Starbucks,93rd & Second,-73.94837189,40.78277588
0101000020E6100000535704206A7E52C074BCFA5F4B604440,227,-300,10166,10166,1007742,5/3/14 4:00,GMT-05:00 America/New_York,Eastern Standard Time,"(40.7523002624512, -73.975227355957)",US,NY,New York,,,425 Lexington,425 Lexington,CO,212 922-3589,22420-220645,Starbucks,43rd & Lex,-73.97522736,40.75230026
0101000020E6100000304902607E7E52C03454FFFF83604440,228,-300,101690005,10169,13539,12/8/13 22:41,GMT-05:00 America/New_York,Eastern Standard Time,"(40.7540283203125, -73.9764633178711)",US,NY,New York,,,230 Park Avenue,230 Park Avenue,CO,212-681-9407,7577-13827,Starbucks,45th & Park,-73.97646332,40.75402832
0101000020E610000003CC0040A37E52C08FCCFAFF7E604440,229,-300,101730002,10173,16970,12/8/13 22:41,GMT-05:00 America/New_York,Eastern Standard Time,"(40.7538757324219, -73.9787139892578)",US,NY,New York,,,340 Madison Avenue,340 Madison Avenue,CO,212-867-0928,11737-106178,Starbucks,44th & Madison,-73.97871399,40.75387573
0101000020E6100000294B0040868052C0D300F79F295B4440,230,-300,102790001,10279,13537,12/8/13 22:41,GMT-05:00 America/New_York,Eastern Standard Time,"(40.7122077941895, -74.0081939697266)",US,NY,New York,,,233 Broadway,233 Broadway,CO,212-619-1529,7560-14070,Starbucks,Broadway at Barclay Str,-74.00819397,40.71220779
0101000020E6100000CF3805E0FC8052C0760A03E0695B4440,231,-300,10281,10281,1015738,10/1/16 4:00,GMT-05:00 America/New_York,Eastern Standard Time,"(40.714168548584, -74.0154342651367)",US,NY,New York,,203,250 Vesey Street,"250 Vesey Street, 203",CO,6466185392,47020-256344,Starbucks,Brookfield Place 2,-74.01543427,40.71416855
0101000020E6100000E2E402C0068752C0504C0780E4484440,232,-300,103064338,10306,14742,12/8/13 22:41,GMT-05:00 America/New_York,Eastern Standard Time,"(40.5694732666016, -74.1097869873047)",US,NY,Staten Island,,,2530 Hylan Blvd,2530 Hylan Blvd,CO,718-979-8608,7207-707,Starbucks,2530 Hylan Blvd,-74.10978699,40.56947327
0101000020E6100000B03500C0568752C098D9084033484440,233,-300,103064658,10306,17544,12/8/13 22:41,GMT-05:00 America/New_York,Eastern Standard Time,"(40.5640640258789, -74.1146697998047)",US,NY,Staten Island,,,2754 Hylan Blvd,2754 Hylan Blvd,LS,718-980-0892,79489-98105,Starbucks,Stop & Shop-Staten Island #581,-74.1146698,40.56406403
0101000020E61000007788FB9FEE8E52C0A937FE9F9E434440,234,-300,103092502,10309,7063,12/8/13 22:41,GMT-05:00 America/New_York,Eastern Standard Time,"(40.5282783508301, -74.2333145141602)",US,NY,Staten Island,,,2900 Veterans Rd W,2900 Veterans Rd W,LS,718-701-6206,76557-90426,Starbucks,Target Staten Island T-2006,-74.23331451,40.52827835
0101000020E6100000C7D40220138F52C0DDCAF9FFC4424440,235,-300,10309,10309,116567,12/8/13 22:41,GMT-05:00 America/New_York,Eastern Standard Time,"(40.5216369628906, -74.2355422973633)",US,NY,Staten Island,Richmond Valley Plaza,,106 Page Avenue,"106 Page Avenue, Richmond Valley Plaza",CO,718-356-1090,19195-193084,Starbucks,106 Page Avenue,-74.2355423,40.52163696
0101000020E6100000153902C0CA8652C0E03F06C0B2504440,236,-300,103102521,10310,15314,12/8/13 22:41,GMT-05:00 America/New_York,Eastern Standard Time,"(40.6304550170898, -74.1061248779297)",US,NY,Staten Island,,,480 Forest Ave,480 Forest Ave,CO,718-273-5984,7888-82364,Starbucks,Forest Ave & Bard Ave,-74.10612488,40.63045502
0101000020E6100000171DFB1F418D52C0881104C05F454440,237,-300,10312,10312,1015914,11/16/16 5:00,GMT-05:00 America/New_York,Eastern Standard Time,"(40.5419845581055, -74.2070999145508)",US,NY,Staten Island,,,1243 Woodrow Rd.,1243 Woodrow Rd.,CO,,29398-253346,Starbucks,Woodrow Shopping Plaza,-74.20709991,40.54198456
0101000020E6100000A9F801407C8852C0A6AAF9BF5D4E4440,238,-300,103143540,10314,11701,12/8/13 22:41,GMT-05:00 America/New_York,Eastern Standard Time,"(40.6122360229492, -74.1325836181641)",US,NY,Staten Island,,,2070 Victory Blvd,2070 Victory Blvd,CO,718-982-0167,7923-95788,Starbucks,Victory Blvd & Bradley Ave,-74.13258362,40.61223602
0101000020E61000002EBCFD7FBD8A52C09BA50980164B4440,239,-300,103145867,10314,12090,12/8/13 22:41,GMT-05:00 America/New_York,Eastern Standard Time,"(40.5866241455078, -74.1678161621094)",US,NY,Staten Island,,,2505 Richmond Avenue,2505 Richmond Avenue,CO,(718) 494-4451,7362-1506,Starbucks,2505 Richmond Avenue,-74.16781616,40.58662415
0101000020E6100000EC2CFEDFA68A52C03C36FA7F724A4440,240,-300,103145821,10314,14502,12/8/13 22:41,GMT-05:00 America/New_York,Eastern Standard Time,"(40.5816192626953, -74.1664352416992)",US,NY,Staten Island,Staten Island Mall,1485,2655 Richmond Avenue,"2655 Richmond Avenue, 1485, Staten Island Mall",CO,718-477-5010,10398-100807,Starbucks,Staten Island Mall,-74.16643524,40.58161926
0101000020E610000021E7FD7FDC8A52C09A3F09E0A4494440,241,-300,10314,10314,1006013,12/8/13 22:41,GMT-05:00 America/New_York,Eastern Standard Time,"(40.5753440856934, -74.1697082519531)",US,NY,Staten Island,,,2873 Richmond Ave,2873 Richmond Ave,LS,917-791-5851,19642-201004,Starbucks,Target Staten Island T-2753,-74.16970825,40.57534409
0101000020E6100000A3210460D38A52C012C4F5FF5C4A4440,242,-300,10314,10314,1012501,7/4/15 4:00,GMT-05:00 America/New_York,Eastern Standard Time,"(40.5809631347656, -74.1691513061523)",US,NY,Staten Island,Staten Island Mall,#1075,2655 Richmond Ave.,"2655 Richmond Ave., #1075, Staten Island Mall",CO,718-477-1033,28370-249951,Teavana,Teavana - Staten Island Mall,-74.16915131,40.58096313
0101000020E6100000E262FB7F8B7B52C09ABD01A0E9684440,243,-300,104512042,10451,10906,12/8/13 22:41,GMT-05:00 America/New_York,Eastern Standard Time,"(40.8196296691895, -73.9303894042969)",US,NY,Bronx,,,700 Exterior St,700 Exterior St,LS,(718) 401-5651,3863-141165,Starbucks,Target Bronx Terminal T-2475,-73.9303894,40.81962967
0101000020E61000000CAEFBBFD17A52C0B9810A60AD694440,244,-300,10451,10451,1013054,9/16/15 4:00,GMT-05:00 America/New_York,Eastern Standard Time,"(40.8256034851074, -73.9190521240234)",US,NY,Bronx,,,260 East 161st Street,260 East 161st Street,CO,6468599582,25446-241029,Starbucks,161st & Morris Ave,-73.91905212,40.82560349
0101000020E610000021A80120FA7852C050CAFF3F296E4440,245,-300,10458,10458,1007323,6/20/14 4:00,GMT-05:00 America/New_York,Eastern Standard Time,"(40.8606338500977, -73.890266418457)",US,NY,Bronx,Fordham Plaza,,440 East Fordham Road,"440 East Fordham Road, Fordham Plaza",CO,(718) 220-4920,19872-189465,Starbucks,Fordham Plaza,-73.89026642,40.86063385
0101000020E6100000B60CFE9FFF7E52C080D4054085584440,271,-300,11201,11201,1012534,9/30/15 4:00,GMT-05:00 America/New_York,Eastern Standard Time,"(40.6915664672852, -73.9843521118164)",US,NY,Brooklyn,,,228 Duffield st,228 Duffield st,LS,718-855-1900,25334-232868,Starbucks,Lam Group @ Sheraton Brooklyn,-73.98435211,40.69156647
0101000020E610000013ACFDDF097652C009E2FA7F6E6C4440,246,-300,104612322,10461,7864,12/8/13 22:41,GMT-05:00 America/New_York,Eastern Standard Time,"(40.8471221923828, -73.844352722168)",US,NY,Bronx,,,1728 Eastchester Road,1728 Eastchester Road,CO,718-239-4931,13535-108268,Starbucks,Eastchester Rd & Waters Pl,-73.84435272,40.84712219
0101000020E6100000DF57FEDF057652C0A2E20700F16C4440,247,-300,10461,10461,1015362,8/16/16 4:00,GMT-05:00 America/New_York,Eastern Standard Time,"(40.8511047363281, -73.844108581543)",US,NY,Bronx,,,1886 Eastchester Rd.,1886 Eastchester Rd.,CO,6466183964,29721-255066,Starbucks,Eastchester Rd. & Morris Park Ave.,-73.84410858,40.85110474
0101000020E6100000277FFFFF227752C02D95F93FEE6A4440,248,-300,104627403,10462,16503,12/8/13 22:41,GMT-05:00 America/New_York,Eastern Standard Time,"(40.8353958129883, -73.8615112304688)",US,NY,Bronx,,,1385 Metropolitan Avenue,1385 Metropolitan Avenue,CO,718-319-1702,7745-26828,Starbucks,Metropolitan Ave & Wood Ave,-73.86151123,40.83539581
0101000020E61000007622FBFF3C7A52C02265F63F61714440,249,-300,104631602,10463,6966,12/8/13 22:41,GMT-05:00 America/New_York,Eastern Standard Time,"(40.8857803344727, -73.9099731445313)",US,NY,Bronx,,,3503 Johnson Avenue,3503 Johnson Avenue,CO,718-543-2348,11931-106884,Starbucks,235th & Johnson Ave,-73.90997314,40.88578033
0101000020E61000002A8AFC9F287A52C083610A20C66F4440,250,-300,104637016,10463,12556,12/8/13 22:41,GMT-05:00 America/New_York,Eastern Standard Time,"(40.873233795166, -73.9087295532227)",US,NY,Bronx,,,40 W 225th St,40 W 225th St,LS,,76239-88982,Starbucks,Target Riverdale T-1798,-73.90872955,40.8732338
0101000020E6100000322DFBBFF47952C094FEFBDF53704440,251,-300,10463,10463,1007629,8/12/15 4:00,GMT-05:00 America/New_York,Eastern Standard Time,"(40.8775596618652, -73.9055633544922)",US,NY,Bronx,,,171 W 230th St,171 W 230th St,CO,646-455-9846,23265-228866,Starbucks,230th & Broadway,-73.90556335,40.87755966
0101000020E6100000EFF8FE1F8A7552C0ADA8FBDF95694440,252,-300,10465,10465,1007525,8/2/14 4:00,GMT-05:00 America/New_York,Eastern Standard Time,"(40.8248863220215, -73.836555480957)",US,NY,Bronx,,,815 Hutchinson River Pkwy,815 Hutchinson River Pkwy,LS,718-536-2689,21895-215765,Starbucks,Target Bronx T-2811,-73.83655548,40.82488632
0101000020E610000071720160A37552C0F883052083694440,253,-300,10465,10465,1015873,9/27/16 4:00,GMT-05:00 America/New_York,Eastern Standard Time,"(40.8243141174316, -73.8380966186523)",US,NY,Bronx,,,815 E Hutchinson River Pkwy,815 E Hutchinson River Pkwy,CO,,29855-255554,Starbucks,Throgs Neck Shopping Center,-73.83809662,40.82431412
0101000020E6100000AECFFF1F257A52C077C7F7FFD06F4440,254,-300,104681128,10468,14722,12/8/13 22:41,GMT-05:00 America/New_York,Eastern Standard Time,"(40.8735656738281, -73.9085159301758)",US,NY,Bronx,,Bldg. K1,50 W. 225th Street,"50 W. 225th Street, Bldg. K1",CO,718-561-3749,9282-95649,Starbucks,225th & Kingsbridge Plaza,-73.90851593,40.87356567
0101000020E6100000171DFB1FC17952C0C6560A60CE714440,255,-300,104714004,10471,1006910,8/29/14 4:00,GMT-05:00 America/New_York,Eastern Standard Time,"(40.8891105651855, -73.9024124145508)",US,NY,Bronx,,,4513 Manhattan College Pkwy,4513 Manhattan College Pkwy,LS,,17829-138153,Starbucks,Manhattan College - Thomas Hall Stu,-73.90241241,40.88911057
0101000020E61000006A3503E0C87A52C0E0000A6090624440,256,-300,11102,11102,1007349,7/21/14 4:00,GMT-05:00 America/New_York,Eastern Standard Time,"(40.7700309753418, -73.9185104370117)",US,NY,Astoria,,,30-18 Astoria Blvd,30-18 Astoria Blvd,CO,7182781518,22638-223164,Starbucks,Astoria Blvd & 31st St,-73.91851044,40.77003098
0101000020E6100000A2FAFF1FC47A52C0CCC3F81F4F614440,257,-300,111033911,11103,11882,12/8/13 22:41,GMT-05:00 America/New_York,Eastern Standard Time,"(40.7602272033691, -73.9182205200195)",US,NY,Astoria,,,31-44 Steinway Street,31-44 Steinway Street,CO,718-274-5700,7567-18640,Starbucks,31-44 Steinway Street,-73.91822052,40.7602272
0101000020E61000004DFEFEFFC57A52C0CD9308E0285F4440,258,-300,111041711,11104,10255,12/8/13 22:41,GMT-05:00 America/New_York,Eastern Standard Time,"(40.7434349060059, -73.9183349609375)",US,NY,Sunnyside,,,46-09 Queens Blvd.,46-09 Queens Blvd.,CO,718-472-5215,11370-105177,Starbucks,46-09 Queens Blvd,-73.91833496,40.74343491
0101000020E6100000D859FCBF4D7A52C0B54F098058634440,259,-300,111052714,11105,13535,12/8/13 22:41,GMT-05:00 America/New_York,Eastern Standard Time,"(40.7761383056641, -73.9109954833984)",US,NY,Astoria,,,22-04 31st Street,22-04 31st Street,CO,718-626-6004,7555-14690,Starbucks,31St St & Ditmars Blvd,-73.91099548,40.77613831
0101000020E61000009996FD5F1A7B52C0977308A0C1604440,260,-300,11106,11106,9764,12/8/13 22:41,GMT-05:00 America/New_York,Eastern Standard Time,"(40.7559089660645, -73.9234848022461)",US,NY,Astoria,,,3711 35th Avenue,3711 35th Avenue,CO,718-706-0464,9663-97893,Starbucks,35th Ave and 37th St,-73.9234848,40.75590897
0101000020E6100000B0F60360347B52C0D8DB030089614440,261,-300,111062648,11106,20069,12/8/13 22:41,GMT-05:00 America/New_York,Eastern Standard Time,"(40.7619934082031, -73.9250717163086)",US,NY,Astoria,,,31-01 Broadway,31-01 Broadway,CO,718-777-1305,14840-129334,Starbucks,31-01 Broadway,-73.92507172,40.76199341
0101000020E6100000375FFC9F897F52C0003FFC5F22584440,262,-300,112016422,11201,11909,12/8/13 22:41,GMT-05:00 America/New_York,Eastern Standard Time,"(40.688549041748, -73.9927749633789)",US,NY,Brooklyn,,,167 Court Street,167 Court Street,CO,718-222-9729,7595-14074,Starbucks,Court St & Dean St,-73.99277496,40.68854904
0101000020E61000006D7FFCDF707F52C024F2FA1FA2584440,263,-300,112014859,11201,13498,12/8/13 22:41,GMT-05:00 America/New_York,Eastern Standard Time,"(40.6924476623535, -73.9912643432617)",US,NY,Brooklyn,,,50 Court Street,50 Court Street,CO,(718) 855-0369,7358-1369,Starbucks,Court St & Joralemon,-73.99126434,40.69244766
0101000020E61000008E27FEFF6A7F52C0DEB201E0F1594440,264,-300,112011001,11201,16940,12/8/13 22:41,GMT-05:00 America/New_York,Eastern Standard Time,"(40.702693939209, -73.9909057617188)",US,NY,Brooklyn,,,67 Front Street,67 Front Street,CO,718-855-0856,9368-96106,Starbucks,Main St & Front St,-73.99090576,40.70269394
0101000020E6100000760A03E0297F52C08768F83FD5584440,265,-300,112013840,11201,17013,12/8/13 22:41,GMT-05:00 America/New_York,Eastern Standard Time,"(40.6940078735352, -73.986930847168)",US,NY,Brooklyn,Poly Tech Institute,,6 Metro Tech,"6 Metro Tech, Poly Tech Institute",CO,718-522-2396,11809-106577,Starbucks,6 Metro Tech at Jay Street,-73.98693085,40.69400787
0101000020E6100000EF37FB7F6C7F52C0F89BFD3FD6574440,266,-300,112016303,11201,17069,12/8/13 22:41,GMT-05:00 America/New_York,Eastern Standard Time,"(40.6862258911133, -73.9909973144531)",US,NY,Brooklyn,,,164 Smith Street,164 Smith Street,CO,718-422-0178,11807-106578,Starbucks,Smith St & Wyckoff St,-73.99099731,40.68622589
0101000020E6100000472701209D7F52C0FE5A0300EC584440,267,-300,112013533,11201,88600,12/8/13 22:41,GMT-05:00 America/New_York,Eastern Standard Time,"(40.6947021484375, -73.9939651489258)",US,NY,Brooklyn,,,134 Montague Street,134 Montague Street,CO,7182430455,844-169565,Starbucks,134 Montague Street,-73.99396515,40.69470215
0101000020E61000005A9402A0447F52C0BEAFFCBF8B584440,268,-300,112015109,11201,89214,12/8/13 22:41,GMT-05:00 America/New_York,Eastern Standard Time,"(40.691764831543, -73.9885635375977)",US,NY,Brooklyn,Fulton Mall,,348 Fulton Street,"348 Fulton Street, Fulton Mall",CO,718 4881719,16608-169505,Starbucks,348 Fulton Street,-73.98856354,40.69176483
0101000020E6100000D3C1FA3FC77E52C033D606403F584440,269,-300,11201,11201,1005807,12/8/13 22:41,GMT-05:00 America/New_York,Eastern Standard Time,"(40.6894302368164, -73.9809112548828)",US,NY,Brooklyn,,D,395 Flatbush Ave Extension,"395 Flatbush Ave Extension, D",CO,7188588070,21352-210984,Starbucks,395 Flatbush Ave Extension,-73.98091125,40.68943024
0101000020E6100000FCCDFE1FEB7E52C0C486FA9FF4584440,270,-300,11201,11201,1009903,5/29/15 4:00,GMT-05:00 America/New_York,Eastern Standard Time,"(40.6949653625488, -73.9831008911133)",US,NY,Brooklyn,,,309 Gold St,309 Gold St,CO,(347) 997-2633,24401-237441,Starbucks,Gold St & Johnson Street,-73.98310089,40.69496536
0101000020E6100000E389FFBF5A7F52C0A976FAFF404F4440,272,-300,112043710,11204,13895,12/8/13 22:41,GMT-05:00 America/New_York,Eastern Standard Time,"(40.6191711425781, -73.9899139404297)",US,NY,Brooklyn,,,6423 18th Avenue,6423 18th Avenue,CO,718-234-7160,7921-91620,Starbucks,65th St & 18th Ave,-73.98991394,40.61917114
0101000020E6100000428FFF9F167E52C08C4305A0B4584440,273,-300,11205,11205,1009474,5/29/15 4:00,GMT-05:00 America/New_York,Eastern Standard Time,"(40.6930122375488, -73.9701309204102)",US,NY,Brooklyn,,,394 Myrtle Ave,394 Myrtle Ave,CO,3475870422,23836-232524,Starbucks,394 Myrtle Ave,-73.97013092,40.69301224
0101000020E6100000E960FD9FC38152C00FB9F85FD7504440,274,-300,112092407,11209,13849,12/8/13 22:41,GMT-05:00 America/New_York,Eastern Standard Time,"(40.6315727233887, -74.0275650024414)",US,NY,Brooklyn,,,7419 3rd Avenue,7419 3rd Avenue,CO,718-836-3882,2864-92970,Starbucks,Bay Ridge Pkwy & 3rd Ave,-74.027565,40.63157272
0101000020E61000005AD3FEFFA68152C04D800640814F4440,275,-300,112095211,11209,17881,12/8/13 22:41,GMT-05:00 America/New_York,Eastern Standard Time,"(40.6211318969727, -74.0258178710938)",US,NY,Brooklyn,,,514 86th Street,514 86th Street,CO,718-491-1340,11808-106389,Starbucks,514 86th St,-74.02581787,40.6211319
0101000020E6100000FBA6FADF1B8252C07E470160444F4440,276,-300,112096812,11209,18465,12/8/13 22:41,GMT-05:00 America/New_York,Eastern Standard Time,"(40.6192741394043, -74.0329513549805)",US,NY,Brooklyn,N/A,,9202 Third Avenue,"9202 Third Avenue, N/A",CO,718-492-5331,7646-27128,Starbucks,3rd Ave & 92nd St,-74.03295135,40.61927414
0101000020E6100000196B03A09F7C52C020C0F93FCD504440,277,-300,112103036,11210,6551,12/8/13 22:41,GMT-05:00 America/New_York,Eastern Standard Time,"(40.6312637329102, -73.9472427368164)",US,NY,Brooklyn,,,2201 Nostrand Ave,2201 Nostrand Ave,LS,718-637-5005,76878-100172,Starbucks,Target Brooklyn College,-73.94724274,40.63126373
0101000020E6100000596DFE5FB57C52C0EA480580F0504440,278,-300,112102902,11210,8328,12/8/13 22:41,GMT-05:00 America/New_York,Eastern Standard Time,"(40.6323394775391, -73.9485702514648)",US,NY,Brooklyn,,,33-42 Hillel Place,33-42 Hillel Place,CO,718-338-2489,9721-97945,Starbucks,33-42 Hillel Place,-73.94857025,40.63233948
0101000020E6100000A239FC7FE67C52C002E4F85F365B4440,279,-300,11211,11211,1006971,7/24/14 4:00,GMT-05:00 America/New_York,Eastern Standard Time,"(40.7125968933105, -73.9515686035156)",US,NY,Brooklyn,,,405-409 Union Avenue,405-409 Union Avenue,CO,7183846936,18858-191484,Starbucks,Union Ave & Ainslie St,-73.9515686,40.71259689
0101000020E61000007CE100C0527D52C0676902A0E55B4440,280,-300,11211,11211,1007809,11/6/14 5:00,GMT-05:00 America/New_York,Eastern Standard Time,"(40.717945098877, -73.9581756591797)",US,NY,Brooklyn,,,154 N Seventh St,154 N Seventh St,CO,7183840152,22596-222524,Starbucks,154 N Seventh St,-73.95817566,40.7179451
0101000020E610000050CAFF3FE97F52C07F2F0940714D4440,281,-300,112143103,11214,7491,12/8/13 22:41,GMT-05:00 America/New_York,Eastern Standard Time,"(40.6050186157227, -73.9986114501953)",US,NY,Brooklyn,,,1971 86th Street,1971 86th Street,CO,718-266-1503,13983-114731,Starbucks,1971 86th Street,-73.99861145,40.60501862
0101000020E610000027BEFB5F058052C0379EF8FF2B4C4440,282,-300,11214,11214,1007631,11/25/14 5:00,GMT-05:00 America/New_York,Eastern Standard Time,"(40.5950927734375, -74.0003280639648)",US,NY,Brooklyn,,,8973 Bay Parkway,8973 Bay Parkway,CO,7182651069,23267-228864,Starbucks,Caesar's Bay Shopping Center,-74.00032806,40.59509277
0101000020E6100000498D01C08E7E52C0D5D0066003564440,283,-300,112152222,11215,15830,12/8/13 22:41,GMT-05:00 America/New_York,Eastern Standard Time,"(40.6719779968262, -73.9774627685547)",US,NY,Brooklyn,,,166 7th Avenue,166 7th Avenue,CO,718-369-3098,7441-1994,Starbucks,164 7th Avenue,-73.97746277,40.671978
0101000020E61000002B720480D57E52C0787003805B554440,284,-300,,11215,1015924,9/27/16 4:00,GMT-05:00 America/New_York,Eastern Standard Time,"(40.6668548583984, -73.9817810058594)",US,NY,Brooklyn,,,444 Ninth St.,444 Ninth St.,CO,9292148871,29856-255547,Starbucks,7th Ave and 9th St,-73.98178101,40.66685486
0101000020E61000009E07FB9F917E52C0185CF77FA3574440,285,-300,112171450,11217,12539,12/8/13 22:41,GMT-05:00 America/New_York,Eastern Standard Time,"(40.6846771240234, -73.9776382446289)",US,NY,Brooklyn,Atlantic Terminal,,139 Flatbush Ave,"139 Flatbush Ave, Atlantic Terminal",CO,718-789-3418,7704-13119,Starbucks,Flatbush Ave Atlantic Terminal,-73.97763824,40.68467712
0101000020E6100000845DFB9F8F7E52C08D00FABF9B574440,286,-300,112171450,11217,12555,12/8/13 22:41,GMT-05:00 America/New_York,Eastern Standard Time,"(40.684440612793, -73.9775161743164)",US,NY,Brooklyn,,,139 Flatbush Ave,139 Flatbush Ave,LS,718-290-1109,76240-90427,Starbucks,Target Atlantic Terminal T-1849,-73.97751617,40.68444061
0101000020E6100000110701E0757E52C0C3E1FD9F60574440,287,-300,11217,11217,91225,12/8/13 22:41,GMT-05:00 America/New_York,Eastern Standard Time,"(40.6826362609863, -73.975944519043)",US,NY,Brooklyn,,,620 Atlantic Avenue,620 Atlantic Avenue,CO,7182300859,17727-179364,Starbucks,Barclays Center,-73.97594452,40.68263626
0101000020E61000005A9402A0447E52C0F54DF5BFB7564440,288,-300,11217,11217,116485,12/8/13 22:41,GMT-05:00 America/New_York,Eastern Standard Time,"(40.6774826049805, -73.9729385375977)",US,NY,Brooklyn,,,164 Park Place,164 Park Place,CO,718-623-9419,19554-200744,Starbucks,164 Park Place,-73.97293854,40.6774826
0101000020E6100000F59000A0107D52C0E1660A00825D4440,289,-300,112222107,11222,17014,12/8/13 22:41,GMT-05:00 America/New_York,Eastern Standard Time,"(40.7305297851563, -73.9541397094727)",US,NY,Brooklyn,,,910 Manhattan Avenue,910 Manhattan Avenue,CO,718-609-0467,13262-107296,Starbucks,910 Manhattan Avenue,-73.95413971,40.73052979
0101000020E61000001BD10340117F52C0DAFEF8BF614A4440,290,-300,112242727,11224,7189,12/8/13 22:41,GMT-05:00 America/New_York,Eastern Standard Time,"(40.5811080932617, -73.9854278564453)",US,NY,Brooklyn,,,3035 Cropsey Ave,3035 Cropsey Ave,CO,718-372-3573,8131-96060,Starbucks,Cropsey Ave & Hart Place,-73.98542786,40.58110809
0101000020E61000005EC60380597D52C0934107C0EC4D4440,291,-300,112292003,11229,1005808,12/8/13 22:41,GMT-05:00 America/New_York,Eastern Standard Time,"(40.6087875366211, -73.9585876464844)",US,NY,Brooklyn,,,1417 Kings Highway,1417 Kings Highway,CO,718-627-1016,17224-171944,Starbucks,1417 Kings Highway,-73.95858765,40.60878754
0101000020E610000006D7FDDFE87A52C0DE30FA9F364E4440,292,-300,112345204,11234,69677,12/8/13 22:41,GMT-05:00 America/New_York,Eastern Standard Time,"(40.6110420227051, -73.9204635620117)",US,NY,Brooklyn,,,5400 Avenue U,5400 Avenue U,LS,718-253-3100,16153-155504,Starbucks,Macy's-Kings Plaza #6,-73.92046356,40.61104202
0101000020E610000089B600C0F37A52C0AB460AC01A4E4440,293,-300,11234,11234,1008866,9/4/14 4:00,GMT-05:00 America/New_York,Eastern Standard Time,"(40.6101913452148, -73.9211273193359)",US,NY,Brooklyn,,Unit 0K2,5296 Kings Plaza,"5296 Kings Plaza, Unit 0K2",CO,9292712767,22560-214868,Starbucks,Kings Plaza Mall,-73.92112732,40.61019135
0101000020E6100000964C0460F27B52C004F30480B24F4440,294,-300,11234,11234,1009148,3/15/16 4:00,GMT-05:00 America/New_York,Eastern Standard Time,"(40.6226348876953, -73.9366683959961)",US,NY,Brooklyn,,,1927 Flatbush Ave,1927 Flatbush Ave,CO,3475330430,23591-231287,Starbucks,Flatbush Ave & Kings Hwy,-73.9366684,40.62263489
0101000020E610000031C7FA1F837D52C0E1BDFE7FF7494440,295,-300,112356405,11235,9148,12/8/13 22:41,GMT-05:00 America/New_York,Eastern Standard Time,"(40.5778656005859, -73.9611282348633)",US,NY,Brooklyn,,,607 Brighton Beach Avenue,607 Brighton Beach Avenue,CO,718-934-3211,3438-93385,Starbucks,607 Brighton Beach Ave,-73.96112823,40.5778656
0101000020E610000083DF02E04A7D52C03E9CFA1FE4554440,296,-300,11238,11238,1007630,10/3/14 4:00,GMT-05:00 America/New_York,Eastern Standard Time,"(40.6710243225098, -73.9576950073242)",US,NY,Brooklyn,,,341 Eastern Pkwy,341 Eastern Pkwy,CO,7187780140,23266-228865,Starbucks,Franklin Ave & Eastern Pkwy,-73.95769501,40.67102432
0101000020E61000008DE801A0887752C07395F61F7C534440,297,-300,112392801,11239,65799,12/8/13 22:41,GMT-05:00 America/New_York,Eastern Standard Time,"(40.6522254943848, -73.8677139282227)",US,NY,Brooklyn,,,519 Gateway Dr,519 Gateway Dr,LS,718-235-6032,15847-160724,Starbucks,Target Gateway T-1401,-73.86771393,40.65222549
0101000020E6100000E9210140617552C086AB0320EE604440,298,-300,113545105,11354,19218,12/8/13 22:41,GMT-05:00 America/New_York,Eastern Standard Time,"(40.757266998291, -73.8340606689453)",US,NY,Flushing,,,40-24 College Point Blvd,40-24 College Point Blvd,LS,347-532-9942,9077-145446,Starbucks,Target Flushing T-2451,-73.83406067,40.757267
0101000020E6100000D282FEDF247552C0420DF85F5B614440,299,-300,11354,11354,1009150,12/10/14 5:00,GMT-05:00 America/New_York,Eastern Standard Time,"(40.7606010437012, -73.8303756713867)",US,NY,Flushing,,,3805 Main St,3805 Main St,CO,718-445-0354,23593-231144,Starbucks,3805 Main St,-73.83037567,40.76060104
0101000020E610000068CF0240177552C0D8DB030009614440,300,-300,113553133,11355,13531,12/8/13 22:41,GMT-05:00 America/New_York,Eastern Standard Time,"(40.7580871582031, -73.8295440673828)",US,NY,Flushing,,,41-02 Main Street,41-02 Main Street,CO,718-358-9355,7539-12698,Starbucks,Main St & 41St Ave,-73.82954407,40.75808716
0101000020E610000028E5FF9F547552C0BE31040047644440,301,-300,113562446,11356,8059,12/8/13 22:41,GMT-05:00 America/New_York,Eastern Standard Time,"(40.7834167480469, -73.8332901000977)",US,NY,Flushing,,,13505 20th Ave,13505 20th Ave,LS,718-661-4346,76351-97134,Starbucks,Target Flushing T-1150,-73.8332901,40.78341675
0101000020E61000008F8DFE9F1C7552C08279024019644440,302,-300,113562451,11356,13536,12/8/13 22:41,GMT-05:00 America/New_York,Eastern Standard Time,"(40.7820205688477, -73.8298721313477)",US,NY,Whitestone,Triangle Plaza One,,138-11 20th Avenue,"138-11 20th Avenue, Triangle Plaza One",CO,718-539-4072,7559-6652,Starbucks,138-11 20th Avenue,-73.82987213,40.78202057
0101000020E61000004600FDDF0D7152C0624FF9DF63614440,303,-300,113613464,11361,13509,12/8/13 22:41,GMT-05:00 America/New_York,Eastern Standard Time,"(40.7608604431152, -73.766471862793)",US,NY,Bayside,,,215-29 Northern Blvd.,215-29 Northern Blvd.,CO,(718) 281-4165,7391-1676,Starbucks,215th St. & Northern Blvd,-73.76647186,40.76086044
0101000020E610000021A801207A6E52C0206905C0D7614440,304,-300,113621816,11362,18276,12/8/13 22:41,GMT-05:00 America/New_York,Eastern Standard Time,"(40.7643966674805, -73.726203918457)",US,NY,Little Neck,,,254-41 Horace Harding Expressway,254-41 Horace Harding Expressway,CO,718-428-2489,14240-112064,Starbucks,254-41 Horace Harding Expressway,-73.72620392,40.76439667
0101000020E610000027BEFB5F457252C064DCFDBFA45E4440,305,-300,113652712,11365,13484,12/8/13 22:41,GMT-05:00 America/New_York,Eastern Standard Time,"(40.7394027709961, -73.7854843139648)",US,NY,Fresh Meadows,,,61-51 188th Street,61-51 188th Street,CO,(718) 264-0658,7296-1042,Starbucks,188th Street & 64th Ave,-73.78548431,40.73940277
0101000020E610000039EC0080CA7852C0CE1101A0ED5F4440,306,-300,113726641,11372,7615,12/8/13 22:41,GMT-05:00 America/New_York,Eastern Standard Time,"(40.749439239502, -73.8873596191406)",US,NY,Jackson Heights,,,78-25 37th Avenue,78-25 37th Avenue,CO,718-457-0875,14317-120366,Starbucks,78-25 37th Avenue,-73.88735962,40.74943924
0101000020E6100000553BFD7FA07752C0508B03E0065E4440,307,-300,113734900,11373,14153,12/8/13 22:41,GMT-05:00 America/New_York,Eastern Standard Time,"(40.7345848083496, -73.8691711425781)",US,NY,Elmhurst,Queens Center Mall,K203,90-15 Queens Boulevard,"90-15 Queens Boulevard, K203, Queens Center Mall",CO,718-699-7856,2787-35599,Starbucks,Queens Center Mall,-73.86917114,40.73458481
0101000020E61000009FEF0280FE7752C008BBF63F1F5E4440,308,-300,113734449,11373,19141,12/8/13 22:41,GMT-05:00 America/New_York,Eastern Standard Time,"(40.7353286743164, -73.8749084472656)",US,NY,Elmhurst,,,8801 Queens Blvd,8801 Queens Blvd,LS,718-760-5656,13133-113948,Starbucks,Target Queens Place T-1344,-73.87490845,40.73532867
0101000020E6100000676902A0257852C0F635FD9F645E4440,309,-300,11373,11373,113993,12/8/13 22:41,GMT-05:00 America/New_York,Eastern Standard Time,"(40.7374458312988, -73.8772964477539)",US,NY,Elmhurst,Elmhurst Plaza,,86-51 Broadway,"86-51 Broadway, Elmhurst Plaza",CO,718 5652021,17202-177784,Starbucks,Queens Blvd & Broadway,-73.87729645,40.73744583
0101000020E610000083DF02E0CA7752C04041F71FF85D4440,310,-300,11373,11373,1012754,7/9/15 4:00,GMT-05:00 America/New_York,Eastern Standard Time,"(40.7341346740723, -73.8717575073242)",US,NY,Elmhurst,Queens Center,Spc. #2007,90-15 Queens Blvd.,"90-15 Queens Blvd., Spc. #2007, Queens Center",CO,718-699-1201,28556-250052,Teavana,Teavana - Queens Center,-73.87175751,40.73413467
0101000020E61000007D20FD1F757752C0E34A0360B85D4440,311,-300,11374,11374,1008876,4/5/16 4:00,GMT-05:00 America/New_York,Eastern Standard Time,"(40.7321891784668, -73.8665237426758)",US,NY,Rego Park,,,92-77 Queens Blvd,92-77 Queens Blvd,CO,3479972496,22716-223428,Starbucks,92-77 Queens Blvd,-73.86652374,40.73218918
0101000020E61000007317FE5F377752C02FA405606A5D4440,312,-300,11374,11374,1009778,9/29/15 4:00,GMT-05:00 America/New_York,Eastern Standard Time,"(40.729808807373, -73.8627548217773)",US,NY,Rego Park,,,95-17 63rd Drive,95-17 63rd Drive,CO,347-757-0261,24165-236144,Starbucks,95-17 63rd Drive,-73.86275482,40.72980881
0101000020E610000094FEFBDF937652C0ED530220F65C4440,313,-300,113752749,11375,12870,12/8/13 22:41,GMT-05:00 America/New_York,Eastern Standard Time,"(40.726261138916, -73.8527755737305)",US,NY,Forest Hills,,,10102 Queens Blvd.,10102 Queens Blvd.,CO,718-459-6923,7897-82740,Starbucks,Queens Blvd & 67th Rd,-73.85277557,40.72626114
0101000020E610000074BCFA5F0B7652C07317FE5F375C4440,314,-300,11375,11375,13497,12/8/13 22:41,GMT-05:00 America/New_York,Eastern Standard Time,"(40.7204399108887, -73.8444442749023)",US,NY,Forest Hills,,,107-12 Continental Avenue,107-12 Continental Avenue,CO,(718) 793-4057,7349-910,Starbucks,107-12 Continental Avenue,-73.84444427,40.72043991
0101000020E610000038C5FC3F3B7652C0101FF9FF485C4440,315,-300,113751022,11375,16733,12/8/13 22:41,GMT-05:00 America/New_York,Eastern Standard Time,"(40.7209777832031, -73.8473663330078)",US,NY,Forest Hills,,,7000 Austin Street,7000 Austin Street,CO,718-268-4719,7217-623,Starbucks,7000 Austin Street,-73.84736633,40.72097778
0101000020E610000046C10080EB7652C08768F83F555A4440,316,-300,11375,11375,17311,12/8/13 22:41,GMT-05:00 America/New_York,Eastern Standard Time,"(40.7057266235352, -73.8581237792969)",US,NY,Forest Hills,,,8989 Union Turnpike,8989 Union Turnpike,LS,718-846-2310,73708-104729,Starbucks,Stop & Shop-Forest Hills #539,-73.85812378,40.70572662
0101000020E61000001B1000A0337A52C03CF7FD1F50604440,317,-300,113771733,11377,14058,12/8/13 22:41,GMT-05:00 America/New_York,Eastern Standard Time,"(40.7524452209473, -73.9094009399414)",US,NY,Woodside,,,51-06 Northern Blvd,51-06 Northern Blvd,CO,718-424-3716,7910-87753,Starbucks,Tower Square Shopping Center,-73.90940094,40.75244522
0101000020E61000003B91FD7F9E7752C0F14607A0A85A4440,318,-300,113857734,11385,17861,12/8/13 22:41,GMT-05:00 America/New_York,Eastern Standard Time,"(40.7082710266113, -73.8690490722656)",US,NY,Glendale,,,8000 Cooper Avenue,8000 Cooper Avenue,CO,718-416-1521,11812-106572,Starbucks,Shops at Atlas Park,-73.86904907,40.70827103
0101000020E610000060AAFCDF4F7A52C09E07FB9F91594440,319,-300,11385,11385,1013205,9/22/15 4:00,GMT-05:00 America/New_York,Eastern Standard Time,"(40.6997566223145, -73.9111251831055)",US,NY,Ridgewood,,,329 Wyckoff Ave.,329 Wyckoff Ave.,CO,3476685736,25040-239644,Starbucks,329 Wyckoff Ave.,-73.91112518,40.69975662
0101000020E6100000122E0520C57552C0AF4DF8DFA9544440,320,-300,114142748,11414,13525,12/8/13 22:41,GMT-05:00 America/New_York,Eastern Standard Time,"(40.661434173584, -73.8401565551758)",US,NY,Howard Beach,,,157-41 Cross Bay Blvd.,157-41 Cross Bay Blvd.,CO,718-641-9332,7492-8546,Starbucks,157-41 Cross Bay Blvd.,-73.84015656,40.66143417
0101000020E61000002EBCFD7F3D7552C0EA480580705B4440,321,-300,11415,11415,6348,12/8/13 22:41,GMT-05:00 America/New_York,Eastern Standard Time,"(40.7143707275391, -73.8318786621094)",US,NY,Kew Gardens,,,118-24 Queens Blvd,118-24 Queens Blvd,CO,718 261-4246,11933-106885,Starbucks,118-24 Queens Blvd,-73.83187866,40.71437073
0101000020E6100000290C04E0637452C009E2FA7FEE594440,322,-300,11415,11415,1006790,10/30/14 4:00,GMT-05:00 America/New_York,Eastern Standard Time,"(40.7025909423828, -73.8185958862305)",US,NY,Richmond Hill,,,132-40 Metropolitan Ave,132-40 Metropolitan Ave,CO,718-262-8691,21514-211004,Starbucks,132-40 Metropolitan Ave,-73.81859589,40.70259094
0101000020E610000004F30480B26D52C081D0F6BF0E5D4440,323,-300,11426,11426,18229,12/8/13 22:41,GMT-05:00 America/New_York,Eastern Standard Time,"(40.7270126342773, -73.7140197753906)",US,NY,Bellerose,,,251-05 Jamaica Avenue,251-05 Jamaica Avenue,CO,7183471304,13450-106937,Starbucks,251-05 Jamaica Avenue,-73.71401978,40.72701263
0101000020E61000001AE9FB5FA47252C0C093F51F42524440,324,-300,11430,11430,7497,12/8/13 22:41,GMT-05:00 America/New_York,Eastern Standard Time,"(40.6426429748535, -73.7912826538086)",US,NY,jamaica,,,NY JFK INternational Airport,NY JFK INternational Airport,LS,718-656-8610,75953-105307,Starbucks,JFK T1 pre security food court,-73.79128265,40.64264297
0101000020E6100000E262FB7F0B7252C029CD078001534440,325,-300,11430,11430,7702,12/8/13 22:41,GMT-05:00 America/New_York,Eastern Standard Time,"(40.6484832763672, -73.7819519042969)",US,NY,Jamaica,,,JFK Airport Terminal 7 British Airways,JFK Airport Terminal 7 British Airways,LS,718-656-8010,70059-105309,Starbucks,JFK T7 Pre Security Ticketing,-73.7819519,40.64848328
0101000020E610000032EEFE5F127252C05F83F89F00534440,326,-300,11430,11430,10792,12/8/13 22:41,GMT-05:00 America/New_York,Eastern Standard Time,"(40.6484565734863, -73.7823715209961)",US,NY,Jamaica,,"Terminal 7, Gate 7",NY JFK International Airport,"NY JFK International Airport, Terminal 7, Gate 7",LS,718-425-5679,70026-105310,Starbucks,JFK T7 Gate 7,-73.78237152,40.64845657
0101000020E6100000B46701A0AB7252C07395F61FFC524440,327,-300,11430,11430,14373,12/8/13 22:41,GMT-05:00 America/New_York,Eastern Standard Time,"(40.6483192443848, -73.7917251586914)",US,NY,Jamaica,,,51 W. Courtyard,51 W. Courtyard,LS,,75803-97897,Starbucks,JFK - T8 American Air,-73.79172516,40.64831924
0101000020E6100000C83A03C0C47252C0F41208E08B524440,328,-300,11430,11430,1005566,12/8/13 22:41,GMT-05:00 America/New_York,Eastern Standard Time,"(40.6448936462402, -73.7932586669922)",US,NY,Jamaica,,,JFK Airport,JFK Airport,LS,718-553-2151,18646-191304,Starbucks,JFK T8 North,-73.79325867,40.64489365
0101000020E6100000C83A03C0C47252C0F41208E08B524440,329,-300,11430,11430,1006479,1/4/14 5:00,GMT-05:00 America/New_York,Eastern Standard Time,"(40.6448936462402, -73.7932586669922)",US,NY,Jamaica,,,JFK International Airport,JFK International Airport,LS,718-917-0436,21389-212725,Starbucks,JFK T5 Gate 22,-73.79325867,40.64489365
0101000020E610000075E3FE9F9A7252C01D5E082052524440,330,-300,11430,11430,1011319,3/17/15 4:00,GMT-05:00 America/New_York,Eastern Standard Time,"(40.6431312561035, -73.7906875610352)",US,NY,Jamaica,,,HMS Host - Terminal one JFK Airport Buil,HMS Host - Terminal one JFK Airport Buil,LS,718-751-2892,25116-238021,Starbucks,JFK - T1 Evenings,-73.79068756,40.64313126
0101000020E6100000F75C01E0F37252C06E2808607B5C4440,331,-300,11432,11432,10917,12/8/13 22:41,GMT-05:00 America/New_York,Eastern Standard Time,"(40.7225151062012, -73.7961349487305)",US,NY,Jamaica,,,8000 Utopia Pkwy,8000 Utopia Pkwy,LS,718-990-1716,3928-138154,Starbucks,St. John's University - Queens,-73.79613495,40.72251511
0101000020E61000005707FEBFC37352C06AB3FB9F0D5A4440,332,-300,11435,11435,1014349,3/10/16 5:00,GMT-05:00 America/New_York,Eastern Standard Time,"(40.703540802002, -73.8088226318359)",US,NY,Jamaica,,,8900 Sutphin Blvd.,8900 Sutphin Blvd.,CO,3472331463,25685-242005,Starbucks,89th Ave & Sutphin Blvd.,-73.80882263,40.7035408
